{"data":[{"coordinates":[4.762197,52.308039],"place_name":"Schiphol","iata":"AMS"},{"coordinates":[-122.963432,46.659965],"place_name":"Chehalis, Washington, United States","iata":"CLS"},{"coordinates":[-80.843083,35.227209],"place_name":"Charlotte, North Carolina, United States","iata":"CLT"},{"coordinates":[-83.000707,39.96226],"place_name":"Columbus, Ohio, United States","iata":"CLU"},{"coordinates":[-82.800103,27.965853],"place_name":"Clearwater, Florida, United States","iata":"CLW"},{"coordinates":[2.504632,39.565093],"place_name":"Calvià, Balearic Islands, Spain","iata":"CLY"},{"coordinates":[79.8541134,6.9387469],"place_name":"Colombo, Sri Lanka","iata":"CMB"},{"coordinates":[5.920364,45.566267],"place_name":"Chambéry, Savoie, France","iata":"CMF"},{"coordinates":[-57.653432,-19.001636],"place_name":"Corumbá, Mato Grosso do Sul, Brazil","iata":"CMG"},{"coordinates":[-83.000707,39.96226],"place_name":"Columbus, Ohio, United States","iata":"CMH"},{"coordinates":[-88.243093,40.116484],"place_name":"Champaign, Illinois, United States","iata":"CMI"},{"coordinates":[-7.533141,33.572558],"place_name":"Casablanca, Casablanca-Settat, Morocco","iata":"CMN"},{"coordinates":[-50.342773,-9.334833],"place_name":"Santana do Araguaia, Pará, Brazil","iata":"CMP"},{"coordinates":[7.357964,48.077752],"place_name":"Colmar, Haut-Rhin, France","iata":"CMR"},{"coordinates":[144.9722521,-6.019025],"place_name":"Kundiawa, Chimbu, Papua New Guinea","iata":"CMU"},{"coordinates":[-77.918368,21.379177],"place_name":"Camagüey, Camagüey, Cuba","iata":"CMW"},{"coordinates":[-78.179729,39.698981],"place_name":"Hancock, Maryland, United States","iata":"CMX"},{"coordinates":[-81.932016,34.949801],"place_name":"Spartanburg, South Carolina, United States","iata":"CMY"},{"coordinates":[28.65076,44.176716],"place_name":"Constanța, Constanța, Romania","iata":"CND"},{"coordinates":[-43.945095,-19.922732],"place_name":"Belo Horizonte, Minas Gerais, Brazil","iata":"CNF"},{"coordinates":[-0.325018,45.693165],"place_name":"Cognac, Charente, France","iata":"CNG"},{"coordinates":[-117.719779,34.096676],"place_name":"Claremont, California, United States","iata":"CNH"},{"coordinates":[-58.017331,-31.397254],"place_name":"Concordia, Entre Ríos, Argentina","iata":"CNK"},{"coordinates":[-117.350597,33.158093],"place_name":"Carlsbad, California, United States","iata":"CNM"},{"coordinates":[124.904716,56.840408],"place_name":"Чульман, Нерюнгринский район, Sakha, Russia","iata":"CNN"},{"coordinates":[-103.662709,41.862302],"place_name":"Scottsbluff, Nebraska, United States","iata":"BFF"},{"coordinates":[-49.271272,-25.429596],"place_name":"Curitiba, Paraná, Brazil","iata":"BFH"},{"coordinates":[-122.330062,47.603832],"place_name":"Seattle, Washington, United States","iata":"BFI"},{"coordinates":[-104.984862,39.739236],"place_name":"Denver, Colorado, United States","iata":"BFK"},{"coordinates":[-119.019464,35.373871],"place_name":"Bakersfield, California, United States","iata":"BFL"},{"coordinates":[-88.043054,30.694357],"place_name":"Mobile, Alabama, United States","iata":"BFM"},{"coordinates":[26.2862,-29.1245],"place_name":"Bloemfontein, Free State, South Africa","iata":"BFN"},{"coordinates":[31.668877,-21.0452949],"place_name":"Chiredzi, Masvingo, Zimbabwe","iata":"BFO"},{"coordinates":[-0.467504,52.136381],"place_name":"Bedford, Bedford, England, United Kingdom","iata":"BFR"},{"coordinates":[-5.930276,54.596441],"place_name":"Belfast, Belfast, Northern Ireland, United Kingdom","iata":"BFS"},{"coordinates":[-80.669829,32.431581],"place_name":"Beaufort, South Carolina, United States","iata":"BFT"},{"coordinates":[-46.541859,-22.952023],"place_name":"Bragança Paulista, São Paulo, Brazil","iata":"BGC"},{"coordinates":[-84.575477,30.903825],"place_name":"Bainbridge, Georgia, United States","iata":"BGE"},{"coordinates":[120.765756,18.536739],"place_name":"Bangui, Ilocos Norte, Philippines","iata":"BGF"},{"coordinates":[-90.452319,31.438784],"place_name":"Bogue Chitto, Mississippi, United States","iata":"BGH"},{"coordinates":[-59.603597,13.103221],"place_name":"Bridgetown, Saint Michael, Barbados","iata":"BGI"},{"coordinates":[-75.912526,42.098713],"place_name":"Binghamton, New York, United States","iata":"BGM"},{"coordinates":[6.18123,51.243081],"place_name":"Brüggen, Kreis Viersen, North Rhine-Westphalia, Germany","iata":"BGN"},{"coordinates":[5.325919,60.394306],"place_name":"Bergen, Vestland, Norway","iata":"BGO"},{"coordinates":[-68.777814,44.801182],"place_name":"Bangor, Maine, United States","iata":"BGR"},{"coordinates":[-101.478736,32.250398],"place_name":"Big Spring, Texas, United States","iata":"BGS"},{"coordinates":[44.3872213,33.3061701],"place_name":"Baghdad, Iraq","iata":"BGW"},{"coordinates":[-54.106281,-31.331426],"place_name":"Bagé, Rio Grande do Sul, Brazil","iata":"BGX"},{"coordinates":[9.1885578,45.4639447],"place_name":"Milano, Milan, Italy","iata":"BGY"},{"coordinates":[-68.204336,44.387638],"place_name":"Bar Harbor, Maine, United States","iata":"BHB"},{"coordinates":[-5.930276,54.596441],"place_name":"Belfast, Belfast, Northern Ireland, United Kingdom","iata":"BHD"},{"coordinates":[-94.890787,47.478542],"place_name":"Bemidji, Minnesota, United States","iata":"BJI"},{"coordinates":[-81.939773,40.798098],"place_name":"Wooster, Ohio, United States","iata":"BJJ"},{"coordinates":[-16.575646,13.45535],"place_name":"Banjul, The Gambia","iata":"BJL"},{"coordinates":[29.352243,-3.365051],"place_name":"Bujumbura, Bujumbura Mairie, Burundi","iata":"BJM"},{"coordinates":[116.3912757,39.906217],"place_name":"Beijing, China","iata":"BJS"},{"coordinates":[27.432921,37.038636],"place_name":"Bodrum, Muğla, Türkiye","iata":"BJV"},{"coordinates":[44.283006,35.538884],"place_name":"باجوان, Kirkuk, Iraq","iata":"BJW"},{"coordinates":[-101.682508,21.12186],"place_name":"León, Guanajuato, Mexico","iata":"BJX"},{"coordinates":[20.4568974,44.8178131],"place_name":"Belgrade, Serbia","iata":"BJY"},{"coordinates":[-6.970205,38.878059],"place_name":"Badajoz, Badajoz, Spain","iata":"BJZ"},{"coordinates":[37.6174943,55.7504461],"place_name":"Moscow, Russia","iata":"BKA"},{"coordinates":[-106.046549,39.482912],"place_name":"Breckenridge, Colorado, United States","iata":"BKD"},{"coordinates":[-119.019464,35.373871],"place_name":"Bakersfield, California, United States","iata":"BKE"},{"coordinates":[-159.715,21.970833],"place_name":"Kekaha, Hawaii, United States","iata":"BKH"},{"coordinates":[116.072899,5.978007],"place_name":"Kota Kinabalu, Sabah, Malaysia","iata":"BKI"},{"coordinates":[5.672679,51.602901],"place_name":"Boekel, North Brabant, Netherlands","iata":"BKJ"},{"coordinates":[100.4935089,13.7524938],"place_name":"Bangkok, Thailand","iata":"BKK"},{"coordinates":[-81.693445,41.505161],"place_name":"Cleveland, Ohio, United States","iata":"BKL"},{"coordinates":[-8.000337,12.649319],"place_name":"Bamako, Mali","iata":"BKO"},{"coordinates":[102.26238,-3.792286],"place_name":"Bengkulu, Bengkulu, Indonesia","iata":"BKS"},{"coordinates":[-88.729833,43.911372],"place_name":"Pickett, Wisconsin, United States","iata":"BKT"},{"coordinates":[-81.188156,37.77817],"place_name":"Beckley, West Virginia, United States","iata":"BKW"},{"coordinates":[28.9430334,-4.1884204],"place_name":"Bukavu, South Kivu, Democratic Republic of the Congo","iata":"BKY"},{"coordinates":[2.177432,41.382894],"place_name":"Barcelona, Barcelona, Spain","iata":"BLA"},{"coordinates":[-75.959147,4.951055],"place_name":"Balboa, Risaralda, Colombia","iata":"BLB"},{"coordinates":[-114.833774,35.978764],"place_name":"Boulder City, Nevada, United States","iata":"BLD"},{"coordinates":[15.423456,60.485643],"place_name":"Borlänge, Dalarna, Sweden","iata":"BLE"},{"coordinates":[-81.22232,37.26984],"place_name":"Bluefield, West Virginia, United States","iata":"BLF"},{"coordinates":[-52.261541,-15.891603],"place_name":"Barra do Garças, Mato Grosso, Brazil","iata":"BPG"},{"coordinates":[-110.113681,42.538165],"place_name":"Big Piney, Wyoming, United States","iata":"BPI"},{"coordinates":[116.855445,-1.24565],"place_name":"Balikpapan, East Kalimantan, Indonesia","iata":"BPN"},{"coordinates":[-39.064251,-16.443473],"place_name":"Porto Seguro, Bahia, Brazil","iata":"BPS"},{"coordinates":[-94.101846,30.086046],"place_name":"Beaumont, Texas, United States","iata":"BPT"},{"coordinates":[-122.989827,45.522894],"place_name":"Hillsboro, Oregon, United States","iata":"BQH"},{"coordinates":[-81.491489,31.149953],"place_name":"Brunswick, Georgia, United States","iata":"BQK"},{"coordinates":[-67.1541343,18.4274359],"place_name":"Aguadilla, Puerto Rico","iata":"BQN"},{"coordinates":[17.4809166,8.4572001],"place_name":"Bouna Kaba, Mandoul, Chad","iata":"BQO"},{"coordinates":[95.922586,55.456104],"place_name":"Благовещенский сельсовет, Ирбейский район, Krasnoyarsk Krai, Russia","iata":"BQS"},{"coordinates":[23.685185,52.093751],"place_name":"Брест, Brest Region, Belarus","iata":"BQT"},{"coordinates":[-36.023279,-10.009259],"place_name":"Jequiá da Praia, Alagoas, Brazil","iata":"BQU"},{"coordinates":[-135.737565,58.412838],"place_name":"Gustavus, Alaska, United States","iata":"BQV"},{"coordinates":[-71.309843,-41.133442],"place_name":"San Carlos de Bariloche, Río Negro, Argentina","iata":"BRC"},{"coordinates":[-94.200829,46.358022],"place_name":"Brainerd, Minnesota, United States","iata":"BRD"},{"coordinates":[8.807165,53.07582],"place_name":"Bremen, Free Hanseatic City of Bremen, Germany","iata":"BRE"},{"coordinates":[-82.826827,37.118432],"place_name":"Whitesburg, Kentucky, United States","iata":"BRG"},{"coordinates":[-71.309843,-41.133442],"place_name":"San Carlos de Bariloche, Río Negro, Argentina","iata":"BRI"},{"coordinates":[-79.796684,43.324892],"place_name":"Burlington, Ontario, Canada","iata":"BRL"},{"coordinates":[6.072181,46.174658],"place_name":"Bernex, Geneva, Switzerland","iata":"BRN"},{"coordinates":[-97.489086,25.914026],"place_name":"Brownsville, Texas, United States","iata":"BRO"},{"coordinates":[16.606107,49.1938775],"place_name":"Brno, South Moravian, Czech Republic","iata":"BRQ"},{"coordinates":[-74.801309,10.979967],"place_name":"Barranquilla, Atlántico, Colombia","iata":"BRR"},{"coordinates":[-2.597299,51.453802],"place_name":"Bristol, Bristol, England, United Kingdom","iata":"BRS"},{"coordinates":[4.351697,50.846557],"place_name":"Brussels, Brussels-Capital, Belgium","iata":"BRU"},{"coordinates":[8.586551,53.552226],"place_name":"Bremerhaven, Free Hanseatic City of Bremen, Germany","iata":"BRV"},{"coordinates":[-3.228949,54.111335],"place_name":"Barrow-in-Furness, Cumbria, England, United Kingdom","iata":"BRW"},{"coordinates":[10.523607,52.264658],"place_name":"Braunschweig, Lower Saxony, Germany","iata":"BWE"},{"coordinates":[-3.228949,54.111335],"place_name":"Barrow-in-Furness, Cumbria, England, United Kingdom","iata":"BWF"},{"coordinates":[-86.443602,36.99032],"place_name":"Bowling Green, Kentucky, United States","iata":"BWG"},{"coordinates":[-76.610759,39.290882],"place_name":"Baltimore, Maryland, United States","iata":"BWI"},{"coordinates":[-0.744993,51.414351],"place_name":"Bracknell, Bracknell Forest, England, United Kingdom","iata":"BWK"},{"coordinates":[114.941757,4.889545],"place_name":"Bandar Seri Begawan, Brunei-Muara, Brunei","iata":"BWN"},{"coordinates":[145.906407,-41.052369],"place_name":"Burnie, Tasmania, Australia","iata":"BWT"},{"coordinates":[-77.249705,38.658172],"place_name":"Woodbridge, Virginia, United States","iata":"BWY"},{"coordinates":[-89.848686,30.79102],"place_name":"Bogalusa, Louisiana, United States","iata":"BXA"},{"coordinates":[-71.514104,42.493447],"place_name":"Boxborough, Massachusetts, United States","iata":"BXC"},{"coordinates":[27.432921,37.038636],"place_name":"Bodrum, Muğla, Türkiye","iata":"BXN"},{"coordinates":[8.305468,47.050545],"place_name":"Lucerne, Lucerne, Switzerland","iata":"BXO"},{"coordinates":[-6.110505,53.20146],"place_name":"Bray, Wicklow, Ireland","iata":"BYF"},{"coordinates":[-78.878392,42.886717],"place_name":"Buffalo, New York, United States","iata":"BYG"},{"coordinates":[-89.918975,35.927295],"place_name":"Blytheville, Arkansas, United States","iata":"BYH"},{"coordinates":[-113.792795,42.535743],"place_name":"Burley, Idaho, United States","iata":"BYI"},{"coordinates":[-5.764962,40.386581],"place_name":"Béjar, Salamanca, Spain","iata":"BYJ"},{"coordinates":[-66.1560326,18.3990551],"place_name":"Bayamón, Puerto Rico","iata":"BYM"},{"coordinates":[-116.684752,35.262753],"place_name":"Fort Irwin, California, United States","iata":"BYS"},{"coordinates":[11.576308,49.94272],"place_name":"Bayreuth, Bavaria, Germany","iata":"BYU"},{"coordinates":[-94.426049,35.239261],"place_name":"Bonanza, Arkansas, United States","iata":"BZA"},{"coordinates":[-88.174417,17.519981],"place_name":"Belize City, Belize, Belize","iata":"BZE"},{"coordinates":[18.000253,53.121965],"place_name":"Bydgoszcz, Kuyavian-Pomeranian Voivodeship, Poland","iata":"BZG"},{"coordinates":[34.366829,53.242378],"place_name":"Брянск, Bryansk, Russia","iata":"BZK"},{"coordinates":[4.287129,51.495827],"place_name":"Bergen op Zoom, North Brabant, Netherlands","iata":"BZM"},{"coordinates":[-111.044047,45.679429],"place_name":"Bozeman, Montana, United States","iata":"BZN"},{"coordinates":[11.35478,46.498113],"place_name":"Bolzano, South Tyrol, Italy","iata":"BZO"},{"coordinates":[3.213131,43.342656],"place_name":"Béziers, Hérault, France","iata":"BZR"},{"coordinates":[-77.036543,38.895037],"place_name":"Washington, District of Columbia, United States","iata":"BZS"},{"coordinates":[-95.569113,29.044415],"place_name":"Brazoria, Texas, United States","iata":"BZT"},{"coordinates":[15.2712,-4.2694],"place_name":"Brazzaville, Brazzaville, Republic of the Congo","iata":"BZV"},{"coordinates":[-86.263946,43.168904],"place_name":"Norton Shores, Michigan, United States","iata":"BZZ"},{"coordinates":[12.191947,-5.557643],"place_name":"Cabinda, Cabinda, Angola","iata":"CAB"},{"coordinates":[-73.129056,3.06508799999999],"place_name":"Colombia","iata":"CAE"},{"coordinates":[9.112851,39.216953],"place_name":"Cagliari, Cagliari, Italy","iata":"CAG"},{"coordinates":[31.235726,30.044388],"place_name":"Cairo, Cairo, Egypt","iata":"CAI"},{"coordinates":[-81.518485,41.083064],"place_name":"Akron, Ohio, United States","iata":"CAK"},{"coordinates":[-5.605101,55.424186],"place_name":"Campbeltown, Argyll and Bute, Scotland, United Kingdom","iata":"CAL"},{"coordinates":[113.259294,23.130196],"place_name":"Guangzhou Shi, Guangdong, China","iata":"CAN"},{"coordinates":[-72.200807,19.759524],"place_name":"Cap Haïtien, Nord, Haiti","iata":"CAP"},{"coordinates":[-82.354018,31.213551],"place_name":"Waycross, Georgia, United States","iata":"AYS"},{"coordinates":[30.695485,36.900964],"place_name":"Antalya, Antalya, Türkiye","iata":"AYT"},{"coordinates":[-73.417067,40.678989],"place_name":"Amityville, New York, United States","iata":"AYZ"},{"coordinates":[54.377401,24.453835],"place_name":"Abu Dhabi, Abu Dhabi, United Arab Emirates","iata":"AZI"},{"coordinates":[-85.587229,42.291707],"place_name":"Kalamazoo, Michigan, United States","iata":"AZO"},{"coordinates":[-99.1331785,19.4326296],"place_name":"Mexico City, Mexico","iata":"AZP"},{"coordinates":[9.948935,45.699945],"place_name":"Adrara San Martino, Bergamo, Italy","iata":"AZR"},{"coordinates":[-122.176821,48.051743],"place_name":"Marysville, Washington, United States","iata":"BAB"},{"coordinates":[-93.7553459,32.470182],"place_name":"Shreveport, Louisiana, United States","iata":"BAD"},{"coordinates":[6.651355,44.386204],"place_name":"Barcelonnette, Alpes-de-Haute-Provence, France","iata":"BAE"},{"coordinates":[-72.758486,42.139033],"place_name":"Westfield, Massachusetts, United States","iata":"BAF"},{"coordinates":[50.5596439032492,26.0224069941867],"place_name":"Bahrain","iata":"BAH"},{"coordinates":[49.8328009,40.3755885],"place_name":"Baku, Azerbaijan","iata":"BAK"},{"coordinates":[-116.938479,40.641837],"place_name":"Battle Mountain, Nevada, United States","iata":"BAM"},{"coordinates":[99.072301,17.06672],"place_name":"Ban Tak, Tak, Thailand","iata":"BAO"},{"coordinates":[-74.801309,10.979967],"place_name":"Barranquilla, Atlántico, Colombia","iata":"BAQ"},{"coordinates":[-118.089217,45.323856],"place_name":"Island City, Oregon, United States","iata":"BAR"},{"coordinates":[-48.569751,-20.553144],"place_name":"Barretos, São Paulo, Brazil","iata":"BAT"},{"coordinates":[23.571984,47.656558],"place_name":"Baia Mare, Maramureș, Romania","iata":"BAY"},{"coordinates":[-3.194549,43.194041],"place_name":"Balmaseda, Biscay, Spain","iata":"BBA"},{"coordinates":[-78.548056,35.381437],"place_name":"Benson, North Carolina, United States","iata":"BBB"},{"coordinates":[-99.334939,31.131783],"place_name":"Brady, Texas, United States","iata":"BBD"},{"coordinates":[12.725858,54.369055],"place_name":"Barth, Kreis Vorpommern-Rügen, Mecklenburg-Western Pomerania, Germany","iata":"BBH"},{"coordinates":[-93.289281,30.846201],"place_name":"Deridder, Louisiana, United States","iata":"DRI"},{"coordinates":[-104.654742,24.022008],"place_name":"Durango, Durango, Mexico","iata":"DRO"},{"coordinates":[13.738144,51.049329],"place_name":"Dresden, Saxony, Germany","iata":"DRS"},{"coordinates":[-100.894698,29.365541],"place_name":"Del Rio, Texas, United States","iata":"DRT"},{"coordinates":[130.904377,-12.427005],"place_name":"Darwin, Northern Territory, Australia","iata":"DRW"},{"coordinates":[-1.470228,53.380663],"place_name":"Sheffield, South Yorkshire, England, United Kingdom","iata":"DSA"},{"coordinates":[-65.178346,47.813212],"place_name":"Grande-Anse, New Brunswick, Canada","iata":"DSD"},{"coordinates":[39.634982,11.1226041],"place_name":"ደሴ / Dessie, Amhara, Ethiopia","iata":"DSE"},{"coordinates":[-93.604666,41.591032],"place_name":"Des Moines, Iowa, United States","iata":"DSM"},{"coordinates":[-17.457171,14.712019],"place_name":"Dakar, Dakar, Senegal","iata":"DSS"},{"coordinates":[-56.440699,-25.450055],"place_name":"Coronel Oviedo, Caaguazú, Paraguay","iata":"DTE"},{"coordinates":[-95.845325,46.817181],"place_name":"Detroit Lakes, Minnesota, United States","iata":"DTL"},{"coordinates":[7.465279,51.514227],"place_name":"Dortmund, North Rhine-Westphalia, Germany","iata":"DTM"},{"coordinates":[-93.7553459,32.470182],"place_name":"Shreveport, Louisiana, United States","iata":"DTN"},{"coordinates":[-83.04664,42.331551],"place_name":"Detroit, Michigan, United States","iata":"DTW"},{"coordinates":[-96.377676,33.991976],"place_name":"Durant, Oklahoma, United States","iata":"DUA"},{"coordinates":[-6.2602964,53.3498006],"place_name":"Dublin, Ireland","iata":"DUB"},{"coordinates":[-96.908337,32.6518],"place_name":"Duncanville, Texas, United States","iata":"DUC"},{"coordinates":[170.503575,-45.874098],"place_name":"Dunedin, Otago, New Zealand","iata":"DUD"},{"coordinates":[-75.755185,36.169608],"place_name":"Duck, North Carolina, United States","iata":"DUF"},{"coordinates":[-84.747714,33.751497],"place_name":"Douglasville, Georgia, United States","iata":"DUG"},{"coordinates":[-78.7600601,41.1190072],"place_name":"DuBois, Pennsylvania, United States","iata":"DUJ"},{"coordinates":[101.447037,1.663197],"place_name":"Dumai, Riau, Indonesia","iata":"DUM"},{"coordinates":[-96.908337,32.6518],"place_name":"Duncanville, Texas, United States","iata":"DUQ"},{"coordinates":[-62.265487,-38.717652],"place_name":"Bahía Blanca, Buenos Aires Province, Argentina","iata":"BHI"},{"coordinates":[69.668339,23.247245],"place_name":"Bhuj, Gujarat, India","iata":"BHJ"},{"coordinates":[64.420229,39.769593],"place_name":"Бухара, Bukhara, Uzbekistan","iata":"BHK"},{"coordinates":[-1.902691,52.479699],"place_name":"Birmingham, West Midlands, England, United Kingdom","iata":"BHM"},{"coordinates":[6.858225,51.844318],"place_name":"Borken, Kreis Borken, North Rhine-Westphalia, Germany","iata":"BHQ"},{"coordinates":[-65.654297,47.626529],"place_name":"Bathurst, New Brunswick, Canada","iata":"BHS"},{"coordinates":[72.689912,32.069797],"place_name":"Sargodha, Punjab, Pakistan","iata":"BHW"},{"coordinates":[-1.902691,52.479699],"place_name":"Birmingham, West Midlands, England, United Kingdom","iata":"BHX"},{"coordinates":[9.451287,42.700868],"place_name":"Bastia, Haute-Corse, France","iata":"BIA"},{"coordinates":[-106.4410954,31.7867031],"place_name":"El Paso, Texas, United States","iata":"BIF"},{"coordinates":[-123.057938,49.084626],"place_name":"Delta, British Columbia, Canada","iata":"BIG"},{"coordinates":[12.6660913,6.8326103],"place_name":"Bikini, Adamawa, Cameroon","iata":"BII"},{"coordinates":[136.071117,-1.164633],"place_name":"Biak Numfor, Papua, Indonesia","iata":"BIK"},{"coordinates":[-108.49607,45.787496],"place_name":"Billings, Montana, United States","iata":"BIL"},{"coordinates":[-79.293823,25.723489],"place_name":"Alice Town, Bimini, Bahamas","iata":"BIM"},{"coordinates":[-2.935004,43.263002],"place_name":"Bilbao, Biscay, Spain","iata":"BIO"},{"coordinates":[-1.559278,43.483252],"place_name":"Biarritz, Pyrénées-Atlantiques, France","iata":"BIQ"},{"coordinates":[-100.783739,46.808327],"place_name":"Bismarck, North Dakota, United States","iata":"BIS"},{"coordinates":[-88.885365,30.396032],"place_name":"Biloxi, Mississippi, United States","iata":"BIX"},{"coordinates":[0.163196,51.867628],"place_name":"Bishop's Stortford, Hertfordshire, England, United Kingdom","iata":"BIY"},{"coordinates":[5.064369,36.751178],"place_name":"Bejaia, Bejaia, Algeria","iata":"BJA"},{"coordinates":[-105.069146,39.920383],"place_name":"Broomfield, Colorado, United States","iata":"BJC"},{"coordinates":[8.054276,45.566411],"place_name":"Biella, Biella, Italy","iata":"BJE"},{"coordinates":[-74.915195,10.793613],"place_name":"Baranoa, Atlántico, Colombia","iata":"BNF"},{"coordinates":[-72.690855,41.764582],"place_name":"Hartford, Connecticut, United States","iata":"BNH"},{"coordinates":[2.7071804,9.3085088],"place_name":"Cité Ouvrière, Borgou, Benin","iata":"BNI"},{"coordinates":[7.10066,50.735851],"place_name":"Bonn, North Rhine-Westphalia, Germany","iata":"BNJ"},{"coordinates":[-81.358718,33.244873],"place_name":"Barnwell, South Carolina, United States","iata":"BNL"},{"coordinates":[12.211191,65.473704],"place_name":"Brønnøysund, Nordland, Norway","iata":"BNN"},{"coordinates":[17.191765,44.772085],"place_name":"Banja Luka, Banja Luka, Bosnia and Herzegovina","iata":"BNX"},{"coordinates":[14.232326,41.160016],"place_name":"Bellona, Caserta, Italy","iata":"BNY"},{"coordinates":[22.099172,44.07787],"place_name":"Bor, Bor District, Serbia","iata":"BOB"},{"coordinates":[-0.580036,44.841225],"place_name":"Bordeaux, Gironde, France","iata":"BOD"},{"coordinates":[-77.036543,38.895037],"place_name":"Washington, District of Columbia, United States","iata":"BOF"},{"coordinates":[-74.0836453,4.6534649],"place_name":"Bogotá, Colombia","iata":"BOG"},{"coordinates":[-1.8798903,50.7201268],"place_name":"Bournemouth, Bournemouth and Christchurch and Poole, England, United Kingdom","iata":"BOH"},{"coordinates":[-116.200886,43.616616],"place_name":"Boise, Idaho, United States","iata":"BOI"},{"coordinates":[27.472128,42.493662],"place_name":"Бургас, Burgas, Bulgaria","iata":"BOJ"},{"coordinates":[-96.79844,44.311461],"place_name":"Brookings, South Dakota, United States","iata":"BOK"},{"coordinates":[72.877393,19.07599],"place_name":"Mumbai, Maharashtra, India","iata":"BOM"},{"coordinates":[-68.270922,12.149239],"place_name":"Caribbean Netherlands","iata":"BON"},{"coordinates":[14.451889,67.28958],"place_name":"Bodø, Nordland, Norway","iata":"BOO"},{"coordinates":[6.862894,47.63796],"place_name":"Belfort, Territoire de Belfort, France","iata":"BOR"},{"coordinates":[-71.058291,42.360253],"place_name":"Boston, Massachusetts, United States","iata":"BOS"},{"coordinates":[2.398627,47.08144],"place_name":"Bourges, Cher, France","iata":"BOU"},{"coordinates":[-4.301808,11.187327],"place_name":"Bobo-Dioulasso, Houet, Burkina Faso","iata":"BOY"},{"coordinates":[-73.485014,40.737759],"place_name":"Bethpage, New York, United States","iata":"BPA"},{"coordinates":[-2.97019,56.460594],"place_name":"Dundee, Dundee City, Scotland, United Kingdom","iata":"DND"},{"coordinates":[-96.796856,32.776272],"place_name":"Dallas, Texas, United States","iata":"DNE"},{"coordinates":[22.307814,47.204854],"place_name":"Derna, Bihor, Romania","iata":"DNF"},{"coordinates":[-81.974843,33.470971],"place_name":"Augusta, Georgia, United States","iata":"DNL"},{"coordinates":[-90.956213,30.486856],"place_name":"Denham Springs, Louisiana, United States","iata":"DNM"},{"coordinates":[-2.058018,48.632038],"place_name":"Dinard, Ille-et-Vilaine, France","iata":"DNR"},{"coordinates":[-96.536658,33.755659],"place_name":"Denison, Texas, United States","iata":"DNS"},{"coordinates":[-117.873221,33.749495],"place_name":"Santa Ana, California, United States","iata":"DNT"},{"coordinates":[-79.395023,36.585972],"place_name":"Danville, Virginia, United States","iata":"DNV"},{"coordinates":[-4.4270204,11.2224192],"place_name":"Dindéresso, Houet, Burkina Faso","iata":"DNX"},{"coordinates":[29.086927,37.77332],"place_name":"Denizli, Denizli, Türkiye","iata":"DNZ"},{"coordinates":[51.5264162,25.2856329],"place_name":"Doha, Qatar","iata":"DOH"},{"coordinates":[39.950949,48.338286],"place_name":"Донецк, Rostov, Russia","iata":"DOK"},{"coordinates":[0.0773449,49.3597234],"place_name":"Deauville, Calvados, France","iata":"DOL"},{"coordinates":[-70.1067224933053,18.6062576970524],"place_name":"Dominican Republic","iata":"DOM"},{"coordinates":[-75.524368,39.158168],"place_name":"Dover, Delaware, United States","iata":"DOV"},{"coordinates":[-87.624421,41.875562],"place_name":"Chicago, Illinois, United States","iata":"DPA"},{"coordinates":[-64.735477,46.094526],"place_name":"Dieppe, New Brunswick, Canada","iata":"DPE"},{"coordinates":[-112.744842,40.221501],"place_name":"Dugway, Utah, United States","iata":"DPG"},{"coordinates":[115.219117,-8.652497],"place_name":"Denpasar, Bali, Indonesia","iata":"DPS"},{"coordinates":[6.336013,45.675346],"place_name":"Mercury, Savoie, France","iata":"DRA"},{"coordinates":[-119.784831,36.739442],"place_name":"Fresno, California, United States","iata":"FAT"},{"coordinates":[-78.878292,35.052576],"place_name":"Fayetteville, North Carolina, United States","iata":"FAY"},{"coordinates":[-78.994156,35.147398],"place_name":"Fort Liberty, North Carolina, United States","iata":"FBG"},{"coordinates":[-147.716675,64.837845],"place_name":"Fairbanks, Alaska, United States","iata":"FBK"},{"coordinates":[-93.268827,44.294964],"place_name":"Faribault, Minnesota, United States","iata":"FBL"},{"coordinates":[27.482,-11.671],"place_name":"Lubumbashi, Haut-Katanga, Democratic Republic of the Congo","iata":"FBM"},{"coordinates":[10.7389701,59.9133301],"place_name":"Oslo, Norway","iata":"FBU"},{"coordinates":[-97.180591,40.137225],"place_name":"Fairbury, Nebraska, United States","iata":"FBY"},{"coordinates":[-114.315321,48.202158],"place_name":"Kalispell, Montana, United States","iata":"FCA"},{"coordinates":[27.8766,-28.8716],"place_name":"Ficksburg, Free State, South Africa","iata":"FCB"},{"coordinates":[-119.784831,36.739442],"place_name":"Fresno, California, United States","iata":"FCH"},{"coordinates":[-93.265469,44.9773],"place_name":"Minneapolis, Minnesota, United States","iata":"FCM"},{"coordinates":[20.252168,49.04723],"place_name":"Spišská Teplica, Prešov, Slovakia","iata":"FCN"},{"coordinates":[12.482932,41.89332],"place_name":"Roma, Rome, Italy","iata":"FCO"},{"coordinates":[-104.825349,38.833958],"place_name":"Colorado Springs, Colorado, United States","iata":"FCS"},{"coordinates":[-120.510842,46.601557],"place_name":"Yakima, Washington, United States","iata":"FCT"},{"coordinates":[5.857264,61.452132],"place_name":"Førde, Vestland, Norway","iata":"FDE"},{"coordinates":[-61.067672,14.602796],"place_name":"Fort-de-France, Martinique","iata":"FDF"},{"coordinates":[9.480086,47.650028],"place_name":"Friedrichshafen, Kreis Bodenseekreis, Baden-Württemberg, Germany","iata":"FDH"},{"coordinates":[-77.46054,38.303184],"place_name":"Fredericksburg, Virginia, United States","iata":"FDK"},{"coordinates":[-77.46054,38.303184],"place_name":"Fredericksburg, Virginia, United States","iata":"FDR"},{"coordinates":[11.2546375,48.179541],"place_name":"Fürstenfeldbruck, Kreis Fürstenfeldbruck, Bavaria, Germany","iata":"FEL"},{"coordinates":[-78.6953623,26.535681],"place_name":"Freeport, Bahamas","iata":"FEP"},{"coordinates":[-121.988571,37.54827],"place_name":"Fremont, California, United States","iata":"FET"},{"coordinates":[-104.820246,41.139981],"place_name":"Cheyenne, Wyoming, United States","iata":"FEW"},{"coordinates":[-5.016193,34.034653],"place_name":"Fez, Fès-Meknès, Morocco","iata":"FEZ"},{"coordinates":[-75.67601,36.030723],"place_name":"Kill Devil Hills, North Carolina, United States","iata":"FFA"},{"coordinates":[-1.777303,51.707922],"place_name":"Fairford, Gloucestershire, England, United Kingdom","iata":"FFD"},{"coordinates":[-122.039966,38.249358],"place_name":"Fairfield, California, United States","iata":"FFL"},{"coordinates":[-81.022833,29.210815],"place_name":"Daytona Beach, Florida, United States","iata":"FFO"},{"coordinates":[-84.873284,38.200906],"place_name":"Frankfort, Kentucky, United States","iata":"FFT"},{"coordinates":[-171.802879,-13.836945],"place_name":"Apia, Tuamasaga, Samoa","iata":"FGI"},{"coordinates":[-22.6429222,70.7440604],"place_name":"Nerlerit Inaat, Sermersooq, Greenland","iata":"CNP"},{"coordinates":[-58.83123,-27.4687],"place_name":"Corrientes, Corrientes, Argentina","iata":"CNQ"},{"coordinates":[145.772185,-16.920666],"place_name":"Cairns, Queensland, Australia","iata":"CNS"},{"coordinates":[-95.457203,37.679214],"place_name":"Chanute, Kansas, United States","iata":"CNU"},{"coordinates":[-97.14667,31.549333],"place_name":"Waco, Texas, United States","iata":"CNW"},{"coordinates":[98.987311,18.788957],"place_name":"Mueang Chiang Mai, Chiang Mai, Thailand","iata":"CNX"},{"coordinates":[-109.546215,38.57381],"place_name":"Moab, Utah, United States","iata":"CNY"},{"coordinates":[-58.017331,-31.397254],"place_name":"Concordia, Entre Ríos, Argentina","iata":"COC"},{"coordinates":[-109.056392,44.526311],"place_name":"Cody, Wyoming, United States","iata":"COD"},{"coordinates":[-80.610259,28.319474],"place_name":"Cocoa Beach, Florida, United States","iata":"COF"},{"coordinates":[-76.651357,5.092197],"place_name":"Condoto, Chocó, Colombia","iata":"COG"},{"coordinates":[-80.731883,28.355387],"place_name":"Cocoa, Florida, United States","iata":"COI"},{"coordinates":[2.4401,6.373391],"place_name":"Cotonou, Littoral, Benin","iata":"COO"},{"coordinates":[-92.461367,46.721728],"place_name":"Cloquet, Minnesota, United States","iata":"COQ"},{"coordinates":[-64.183319,-31.417339],"place_name":"Córdoba, Córdoba, Argentina","iata":"COR"},{"coordinates":[-104.825349,38.833958],"place_name":"Colorado Springs, Colorado, United States","iata":"COS"},{"coordinates":[-99.235079,28.435869],"place_name":"Cotulla, Texas, United States","iata":"COT"},{"coordinates":[-73.129056,3.06508799999999],"place_name":"Colombia","iata":"COU"},{"coordinates":[-71.337988,-29.953193],"place_name":"Coquimbo, Coquimbo, Chile","iata":"COW"},{"coordinates":[-48.333642,-10.183785],"place_name":"Palmas, Tocantins, Brazil","iata":"CPA"},{"coordinates":[-71.352576,-40.1568],"place_name":"San Martín de los Andes, Neuquén, Argentina","iata":"CPC"},{"coordinates":[-90.519825,19.838122],"place_name":"Campeche, Campeche, Mexico","iata":"CPE"},{"coordinates":[23.382394,51.7229],"place_name":"Czeputka, Powiat Bialski, Lublin Voivodeship, Poland","iata":"CPF"},{"coordinates":[12.5697339,55.6753132],"place_name":"København, Capital Region of Denmark, Denmark","iata":"CPH"},{"coordinates":[-70.332275,-27.366468],"place_name":"Copiapó, Atacama, Chile","iata":"CPO"},{"coordinates":[39.49103,39.746755],"place_name":"Erzincan, Erzincan, Türkiye","iata":"ERC"},{"coordinates":[11.028736,50.977797],"place_name":"Erfurt, Thuringia, Germany","iata":"ERF"},{"coordinates":[-4.434081,31.929089],"place_name":"Errachidia, Drâa-Tafilalet, Morocco","iata":"ERH"},{"coordinates":[-80.08527,42.129471],"place_name":"Erie, Pennsylvania, United States","iata":"ERI"},{"coordinates":[-52.273865,-27.635071],"place_name":"Erechim, Rio Grande do Sul, Brazil","iata":"ERM"},{"coordinates":[-89.093966,42.271395],"place_name":"Rockford, Illinois, United States","iata":"ERO"},{"coordinates":[17.072984,-22.560084],"place_name":"Windhoek, Khomas, Namibia","iata":"ERS"},{"coordinates":[41.272764,39.906322],"place_name":"Erzurum, Erzurum, Türkiye","iata":"ERZ"},{"coordinates":[32.854048,39.920789],"place_name":"Ankara, Ankara, Türkiye","iata":"ESB"},{"coordinates":[-87.064743,45.745571],"place_name":"Escanaba, Michigan, United States","iata":"ESC"},{"coordinates":[-122.905463,48.696771],"place_name":"Eastsound, Washington, United States","iata":"ESD"},{"coordinates":[-77.047023,38.80511],"place_name":"Alexandria, Virginia, United States","iata":"ESF"},{"coordinates":[-0.274672,50.832231],"place_name":"Shoreham-by-Sea, West Sussex, England, United Kingdom","iata":"ESH"},{"coordinates":[30.525595,39.766681],"place_name":"Eskisehir, Eskişehir, Türkiye","iata":"ESK"},{"coordinates":[-79.652385,0.966815],"place_name":"Esmeraldas, Esmeraldas, Ecuador","iata":"ESM"},{"coordinates":[-75.181291,40.999539],"place_name":"East Stroudsburg, Pennsylvania, United States","iata":"ESP"},{"coordinates":[7.015817,51.458224],"place_name":"Essen, North Rhine-Westphalia, Germany","iata":"ESS"},{"coordinates":[-94.832764,43.401626],"place_name":"Estherville, Iowa, United States","iata":"EST"},{"coordinates":[-9.76209,31.511828],"place_name":"Essaouira, Marrakesh-Safi, Morocco","iata":"ESU"},{"coordinates":[34.949795,29.556935],"place_name":"Eilat, Southern District, Israel","iata":"ETH"},{"coordinates":[34.949795,29.556935],"place_name":"Eilat, Southern District, Israel","iata":"ETM"},{"coordinates":[-98.819448,32.40063],"place_name":"Eastland, Texas, United States","iata":"ETN"},{"coordinates":[2.321795,50.592872],"place_name":"Estrée-Blanche, Pas-de-Calais, France","iata":"ETR"},{"coordinates":[-85.855216,31.315171],"place_name":"Enterprise, Alabama, United States","iata":"ETS"},{"coordinates":[6.176355,49.119696],"place_name":"Metz, Moselle, France","iata":"ETZ"},{"coordinates":[-174.9540159,-21.3760566],"place_name":"Eua Foou, ʻEua, Tonga","iata":"EUA"},{"coordinates":[-85.145488,31.891272],"place_name":"Eufaula, Alabama, United States","iata":"EUF"},{"coordinates":[-123.095051,44.050505],"place_name":"Eugene, Oregon, United States","iata":"EUG"},{"coordinates":[-13.17137,27.190979],"place_name":"Laayoune, Laâyoune-Sakia El Hamra, Western Sahara","iata":"EUN"},{"coordinates":[-2.742173,51.12558],"place_name":"Street, Somerset, England, United Kingdom","iata":"EUX"},{"coordinates":[-94.072681,30.35493],"place_name":"Evadale, Texas, United States","iata":"EVA"},{"coordinates":[16.690595,68.494392],"place_name":"Evenes, Nordland, Norway","iata":"EVE"},{"coordinates":[145.2840414,-4.5724876],"place_name":"Erevanam, Madang, Papua New Guinea","iata":"EVN"},{"coordinates":[-87.555848,37.974765],"place_name":"Evansville, Indiana, United States","iata":"EVV"},{"coordinates":[1.151016,49.02689],"place_name":"Évreux, Eure, France","iata":"EVX"},{"coordinates":[-70.934205,41.636215],"place_name":"New Bedford, Massachusetts, United States","iata":"EWB"},{"coordinates":[-3.61121,50.529644],"place_name":"Newton Abbot, Devon, England, United Kingdom","iata":"EWK"},{"coordinates":[-77.044114,35.108493],"place_name":"New Bern, North Carolina, United States","iata":"EWN"},{"coordinates":[-74.172367,40.735657],"place_name":"Newark, New Jersey, United States","iata":"EWR"},{"coordinates":[-61.355526932894,15.4365521527403],"place_name":"Dominica","iata":"EWY"},{"coordinates":[-3.526911,50.725562],"place_name":"Exeter, Devon, England, United Kingdom","iata":"EXT"},{"coordinates":[-81.772437,24.562557],"place_name":"Key West, Florida, United States","iata":"EYW"},{"coordinates":[-58.4370894,-34.6075682],"place_name":"Buenos Aires, Argentina","iata":"EZE"},{"coordinates":[39.222713,38.674716],"place_name":"Elazig, Elazığ, Türkiye","iata":"EZS"},{"coordinates":[44.127089,13.6154461],"place_name":"قرانة, Ta'izz, Yemen","iata":"FAA"},{"coordinates":[-0.753984,51.291869],"place_name":"Farnborough, Hampshire, England, United Kingdom","iata":"FAB"},{"coordinates":[26.227845,58.729464],"place_name":"Vägari, Jõgeva, Estonia","iata":"FAE"},{"coordinates":[-76.575275,37.161468],"place_name":"Fort Eustis, Virginia, United States","iata":"FAF"},{"coordinates":[-147.716675,64.837845],"place_name":"Fairbanks, Alaska, United States","iata":"FAI"},{"coordinates":[-65.6531674,18.3245149],"place_name":"Fajardo, Puerto Rico","iata":"FAJ"},{"coordinates":[12.482932,41.89332],"place_name":"Roma, Rome, Italy","iata":"FAL"},{"coordinates":[-83.377155,42.485313],"place_name":"Farmington Hills, Michigan, United States","iata":"FAM"},{"coordinates":[6.804746,58.095114],"place_name":"Farsund, Agder, Norway","iata":"FAN"},{"coordinates":[-6.88410945710822,62.0310655277591],"place_name":"Faroe Islands","iata":"FAO"},{"coordinates":[-96.789821,46.877229],"place_name":"Fargo, North Dakota, United States","iata":"FAR"},{"coordinates":[31.0292,-29.8579],"place_name":"Durban, KwaZulu-Natal, South Africa","iata":"DUR"},{"coordinates":[6.776314,51.225402],"place_name":"Düsseldorf, North Rhine-Westphalia, Germany","iata":"DUS"},{"coordinates":[-118.30126,33.791101],"place_name":"Harbor City, California, United States","iata":"DUT"},{"coordinates":[77.713438,13.24835],"place_name":"Devanahalli, Karnataka, India","iata":"DVA"},{"coordinates":[125.6080623,7.0648306],"place_name":"Davao City, Philippines","iata":"DVO"},{"coordinates":[-112.074142,33.448437],"place_name":"Phoenix, Arizona, United States","iata":"DVT"},{"coordinates":[55.292491,25.265347],"place_name":"Dubai, Dubai, United Arab Emirates","iata":"DWC"},{"coordinates":[-81.022833,29.210815],"place_name":"Daytona Beach, Florida, United States","iata":"DWF"},{"coordinates":[-95.367697,29.758938],"place_name":"Houston, Texas, United States","iata":"DWH"},{"coordinates":[-97.517054,35.472989],"place_name":"Oklahoma City, Oklahoma, United States","iata":"DWN"},{"coordinates":[-81.37903,28.542111],"place_name":"Orlando, Florida, United States","iata":"DWS"},{"coordinates":[55.292491,25.265347],"place_name":"Dubai, Dubai, United Arab Emirates","iata":"DXB"},{"coordinates":[177.506092,64.731688],"place_name":"Анадырь, Chukotka Autonomous Okrug, Russia","iata":"DYR"},{"coordinates":[-99.747591,32.44645],"place_name":"Abilene, Texas, United States","iata":"DYS"},{"coordinates":[68.7863573,38.5762709],"place_name":"Dushanbe, Tajikistan","iata":"DYU"},{"coordinates":[45.255692,-12.782151],"place_name":"Dzaoudzi, Mayotte","iata":"DZA"},{"coordinates":[-56.5224396,-33.3804517],"place_name":"Durazno, Uruguay","iata":"DZO"},{"coordinates":[-121.423013,39.009895],"place_name":"Wheatland, California, United States","iata":"EAN"},{"coordinates":[-3.626059,40.54737],"place_name":"San Sebastián de los Reyes, Madrid, Spain","iata":"EAS"},{"coordinates":[-120.310349,47.42346],"place_name":"Wenatchee, Washington, United States","iata":"EAT"},{"coordinates":[-91.498494,44.811349],"place_name":"Eau Claire, Wisconsin, United States","iata":"EAU"},{"coordinates":[11.97302,45.490456],"place_name":"Villanova di Camposampiero, Padua, Italy","iata":"EBA"},{"coordinates":[34.4565404,1.3651578],"place_name":"Entebbe, Kapchorwa, Uganda","iata":"EBB"},{"coordinates":[8.452075,55.466489],"place_name":"Esbjerg, Southern Denmark, Denmark","iata":"EBJ"},{"coordinates":[44.00976,36.182917],"place_name":"Erbil, Erbil, Iraq","iata":"EBL"},{"coordinates":[114.592583,-3.31875],"place_name":"Banjarmasin, South Kalimantan, Indonesia","iata":"BDJ"},{"coordinates":[-2.7984259,8.0397993],"place_name":"Bondoukou, Zanzan, Côte d'Ivoire","iata":"BDK"},{"coordinates":[-72.690855,41.764582],"place_name":"Hartford, Connecticut, United States","iata":"BDL"},{"coordinates":[27.974578,40.350051],"place_name":"Bandirma, Balıkesir, Türkiye","iata":"BDM"},{"coordinates":[-80.11672,35.405974],"place_name":"Badin, North Carolina, United States","iata":"BDN"},{"coordinates":[107.604954,-6.934469],"place_name":"Bandung, West Java, Indonesia","iata":"BDO"},{"coordinates":[-73.204835,41.167041],"place_name":"Bridgeport, Connecticut, United States","iata":"BDR"},{"coordinates":[17.945526,40.63953],"place_name":"Brindisi, Brindisi, Italy","iata":"BDS"},{"coordinates":[18.520754,69.065003],"place_name":"Bardufoss, Troms, Norway","iata":"BDU"},{"coordinates":[-124.409409,43.119563],"place_name":"Bandon, Oregon, United States","iata":"BDY"},{"coordinates":[-97.337545,37.692236],"place_name":"Wichita, Kansas, United States","iata":"BEC"},{"coordinates":[-0.467504,52.136381],"place_name":"Bedford, Bedford, England, United Kingdom","iata":"BED"},{"coordinates":[20.4568974,44.8178131],"place_name":"Belgrade, Serbia","iata":"BEG"},{"coordinates":[-86.454189,42.116707],"place_name":"Benton Harbor, Michigan, United States","iata":"BEH"},{"coordinates":[117.523134,2.14262],"place_name":"Berau, East Kalimantan, Indonesia","iata":"BEJ"},{"coordinates":[-48.4682,-1.45056],"place_name":"Belém, Pará, Brazil","iata":"BEL"},{"coordinates":[20.0817204,32.1288331],"place_name":"Benghazi, Libya","iata":"BEN"},{"coordinates":[-1.613157,54.973847],"place_name":"Newcastle upon Tyne, Tyne and Wear, England, United Kingdom","iata":"BEO"},{"coordinates":[13.3888599,52.5170365],"place_name":"Berlin, Germany","iata":"BER"},{"coordinates":[23.685185,52.093751],"place_name":"Брест, Brest Region, Belarus","iata":"BES"},{"coordinates":[34.792518,31.245744],"place_name":"Beer Sheva, Southern District, Israel","iata":"BEV"},{"coordinates":[34.85,-19.833],"place_name":"Beira, Sofala, Mozambique","iata":"BEW"},{"coordinates":[-78.548056,35.381437],"place_name":"Benson, North Carolina, United States","iata":"BEX"},{"coordinates":[35.47843,33.89592],"place_name":"بيروت, Beirut, Lebanon","iata":"BEY"},{"coordinates":[-1.751919,53.794423],"place_name":"Bradford, West Yorkshire, England, United Kingdom","iata":"BFD"},{"coordinates":[8.5351374,52.0213243],"place_name":"Bielefeld, North Rhine-Westphalia, Germany","iata":"BFE"},{"coordinates":[-105.501876,44.290635],"place_name":"Gillette, Wyoming, United States","iata":"GCC"},{"coordinates":[-2.57336491,49.45828447],"place_name":"Guernsey","iata":"GCI"},{"coordinates":[28.0328,-26.1633],"place_name":"Johannesburg, Gauteng, South Africa","iata":"GCJ"},{"coordinates":[-73.634305,40.726648],"place_name":"Garden City, New York, United States","iata":"GCK"},{"coordinates":[-81.2384511989646,19.3086622401692],"place_name":"Cayman Islands","iata":"GCL"},{"coordinates":[-112.140631,36.054515],"place_name":"Grand Canyon, Arizona, United States","iata":"GCN"},{"coordinates":[-82.398488,34.851354],"place_name":"Greenville, South Carolina, United States","iata":"GCY"},{"coordinates":[-82.398488,34.851354],"place_name":"Greenville, South Carolina, United States","iata":"GDC"},{"coordinates":[-0.410317,39.518428],"place_name":"Godella, Valencia, Spain","iata":"GDE"},{"coordinates":[0.221228,51.561324],"place_name":"Hornchurch, Greater London, England, United Kingdom","iata":"GDH"},{"coordinates":[3.798883,51.00303],"place_name":"Melle, East Flanders, Belgium","iata":"GDI"},{"coordinates":[-103.338396,20.672038],"place_name":"Guadalajara, Jalisco, Mexico","iata":"GDL"},{"coordinates":[-71.983172,42.582356],"place_name":"Gardner, Massachusetts, United States","iata":"GDM"},{"coordinates":[18.654023,54.348291],"place_name":"Gdańsk, Pomeranian Voivodeship, Poland","iata":"GDN"},{"coordinates":[-104.71246,47.10529],"place_name":"Glendive, Montana, United States","iata":"GDV"},{"coordinates":[150.798862,59.560477],"place_name":"Магадан, Magadan, Russia","iata":"GDX"},{"coordinates":[166.439931,-22.275595],"place_name":"Noumea, South Province, New Caledonia","iata":"GEA"},{"coordinates":[-97.677231,30.632694],"place_name":"Georgetown, Texas, United States","iata":"GED"},{"coordinates":[43.108271,38.295286],"place_name":"Gevas, Van, Türkiye","iata":"GEF"},{"coordinates":[-117.423511,47.657193],"place_name":"Spokane, Washington, United States","iata":"GEG"},{"coordinates":[10.7389701,59.9133301],"place_name":"Oslo, Norway","iata":"GEN"},{"coordinates":[-97.677231,30.632694],"place_name":"Georgetown, Texas, United States","iata":"GEO"},{"coordinates":[120.598573,15.606932],"place_name":"Gerona, Tarlac, Philippines","iata":"GER"},{"coordinates":[100.26019,5.294963],"place_name":"Bayan Lepas, Penang, Malaysia","iata":"GES"},{"coordinates":[20.660484,67.135243],"place_name":"Gällivare, Norrbotten, Sweden","iata":"GEV"},{"coordinates":[-108.055421,44.488924],"place_name":"Greybull, Wyoming, United States","iata":"GEY"},{"coordinates":[-111.29189,47.504885],"place_name":"Great Falls, Montana, United States","iata":"GFA"},{"coordinates":[-79.796684,43.324892],"place_name":"Burlington, Ontario, Canada","iata":"BTV"},{"coordinates":[29.06773,40.182766],"place_name":"Bursa, Bursa, Türkiye","iata":"BTZ"},{"coordinates":[-99.13532,41.781619],"place_name":"Burwell, Nebraska, United States","iata":"BUB"},{"coordinates":[19.0403594,47.4979937],"place_name":"Budapest, Hungary","iata":"BUD"},{"coordinates":[-78.878392,42.886717],"place_name":"Buffalo, New York, United States","iata":"BUF"},{"coordinates":[13.403712,-12.579005],"place_name":"Benguela, Benguela, Angola","iata":"BUG"},{"coordinates":[4.18097,35.213312],"place_name":"Bou Saada, M'Sila, Algeria","iata":"BUJ"},{"coordinates":[28.5887063,-20.1560599],"place_name":"Bulawayo, Zimbabwe","iata":"BUQ"},{"coordinates":[-118.325855,34.181648],"place_name":"Burbank, California, United States","iata":"BUR"},{"coordinates":[41.6359848,41.6505901],"place_name":"Batumi, Adjara, Georgia","iata":"BUS"},{"coordinates":[122.605765,-5.46203],"place_name":"Baubau, Southeast Sulawesi, Indonesia","iata":"BUW"},{"coordinates":[50.853015,28.957218],"place_name":"Bushehr, Bushehr, Iran","iata":"BUZ"},{"coordinates":[2.082335,49.4301],"place_name":"Beauvais, Oise, France","iata":"BVA"},{"coordinates":[-60.671958,2.820848],"place_name":"Boa Vista, Roraima, Brazil","iata":"BVB"},{"coordinates":[29.7803091,-4.4349317],"place_name":"Rabilo, Kigoma, Tanzania","iata":"BVC"},{"coordinates":[-86.007994,30.276868],"place_name":"Inlet Beach, Florida, United States","iata":"BVD"},{"coordinates":[1.533239,45.158498],"place_name":"Brive-la-Gaillarde, Corrèze, France","iata":"BVE"},{"coordinates":[102.411138,15.597998],"place_name":"Bua Yai, Nakhon Ratchasima, Thailand","iata":"BVF"},{"coordinates":[19.74936,48.839922],"place_name":"Braväcovo, Banská Bystrica, Slovakia","iata":"BVR"},{"coordinates":[-89.944257,34.311498],"place_name":"Batesville, Mississippi, United States","iata":"BVX"},{"coordinates":[-118.396306,34.06965],"place_name":"Beverly Hills, California, United States","iata":"BVY"},{"coordinates":[-111.757352,32.879502],"place_name":"Casa Grande, Arizona, United States","iata":"CGZ"},{"coordinates":[-85.309488,35.045722],"place_name":"Chattanooga, Tennessee, United States","iata":"CHA"},{"coordinates":[172.636645,-43.530955],"place_name":"Christchurch, Canterbury, New Zealand","iata":"CHC"},{"coordinates":[-111.84125,33.306161],"place_name":"Chandler, Arizona, United States","iata":"CHD"},{"coordinates":[-87.624421,41.875562],"place_name":"Chicago, Illinois, United States","iata":"CHI"},{"coordinates":[-78.476678,38.029306],"place_name":"Charlottesville, Virginia, United States","iata":"CHO"},{"coordinates":[24.019154,35.512083],"place_name":"Chania, Crete, Greece","iata":"CHQ"},{"coordinates":[1.69571,46.8047],"place_name":"Châteauroux, Indre, France","iata":"CHR"},{"coordinates":[-79.940273,32.787601],"place_name":"Charleston, South Carolina, United States","iata":"CHS"},{"coordinates":[-176.383812,-43.980074],"place_name":"Chatham Islands, Chatham Islands, New Zealand","iata":"CHT"},{"coordinates":[-82.519034,9.445609],"place_name":"Changuinola, Bocas del Toro, Panama","iata":"CHX"},{"coordinates":[12.482932,41.89332],"place_name":"Roma, Rome, Italy","iata":"CIA"},{"coordinates":[-73.169002,40.804265],"place_name":"Islandia, New York, United States","iata":"CIB"},{"coordinates":[-91.670405,41.975887],"place_name":"Cedar Rapids, Iowa, United States","iata":"CID"},{"coordinates":[-6.392162,54.45072],"place_name":"Craigavon, Armagh City and Banbridge and Craigavon, Northern Ireland, United Kingdom","iata":"CIG"},{"coordinates":[-68.753815,-11.018461],"place_name":"Cobija, Pando, Bolivia","iata":"CIJ"},{"coordinates":[-95.861391,41.262128],"place_name":"Council Bluffs, Iowa, United States","iata":"CIL"},{"coordinates":[-73.05024,-36.827079],"place_name":"Concepción, Biobío, Chile","iata":"CIO"},{"coordinates":[-84.320068,46.52391],"place_name":"Sault Ste. Marie, Ontario, Canada","iata":"CIU"},{"coordinates":[-79.840831,-6.766417],"place_name":"Chiclayo, Lambayeque, Peru","iata":"CIX"},{"coordinates":[-110.346224,31.56215],"place_name":"Fort Huachuca, Arizona, United States","iata":"FHU"},{"coordinates":[-72.014439,41.262541],"place_name":"Fishers Island, New York, United States","iata":"FID"},{"coordinates":[-65.128839,-28.637702],"place_name":"Frías, Santiago del Estero, Argentina","iata":"FIG"},{"coordinates":[15.3125974,-4.3217055],"place_name":"Kinshasa, Democratic Republic of the Congo","iata":"FIH"},{"coordinates":[-118.912509,34.398561],"place_name":"Fillmore, California, United States","iata":"FIL"},{"coordinates":[20.1566908111252,40.641089555859],"place_name":"Albania","iata":"FJR"},{"coordinates":[8.403419,49.006871],"place_name":"Karlsruhe, Baden-Württemberg, Germany","iata":"FKB"},{"coordinates":[0.847732,52.829919],"place_name":"Fakenham, Norfolk, England, United Kingdom","iata":"FKH"},{"coordinates":[25.2057291,0.5184022],"place_name":"Kisangani, Tshopo, Democratic Republic of the Congo","iata":"FKI"},{"coordinates":[-86.868942,35.925206],"place_name":"Franklin, Tennessee, United States","iata":"FKL"},{"coordinates":[-86.868942,35.925206],"place_name":"Franklin, Tennessee, United States","iata":"FKN"},{"coordinates":[1.6243698,9.5816686],"place_name":"Faka Faka, Donga, Benin","iata":"FKQ"},{"coordinates":[-75.614305,1.615867],"place_name":"Florencia, Caquetá, Colombia","iata":"FLA"},{"coordinates":[-48.54961,-27.5973],"place_name":"Florianópolis, Santa Catarina, Brazil","iata":"FLB"},{"coordinates":[-77.401927,37.227928],"place_name":"Petersburg, Virginia, United States","iata":"FLE"},{"coordinates":[9.433326,54.783302],"place_name":"Flensburg, Schleswig-Holstein, Germany","iata":"FLF"},{"coordinates":[-111.651823,35.198752],"place_name":"Flagstaff, Arizona, United States","iata":"FLG"},{"coordinates":[-80.143379,26.122308],"place_name":"Fort Lauderdale, Florida, United States","iata":"FLL"},{"coordinates":[-48.54961,-27.5973],"place_name":"Florianópolis, Santa Catarina, Brazil","iata":"FLN"},{"coordinates":[11.255576,43.769871],"place_name":"Firenze, Florence, Italy","iata":"FLO"},{"coordinates":[-92.597108,36.278958],"place_name":"Flippin, Arkansas, United States","iata":"FLP"},{"coordinates":[11.255576,43.769871],"place_name":"Firenze, Florence, Italy","iata":"FLR"},{"coordinates":[-74.0059945,40.7127492],"place_name":"New York, New York, United States","iata":"FLU"},{"coordinates":[-94.921703,39.345184],"place_name":"Fort Leavenworth, Kansas, United States","iata":"FLV"},{"coordinates":[-98.156119,29.133578],"place_name":"Floresville, Texas, United States","iata":"FLW"},{"coordinates":[-118.777895,39.474517],"place_name":"Fallon, Nevada, United States","iata":"FLX"},{"coordinates":[-58.174498,-26.185298],"place_name":"Formosa, Formosa, Argentina","iata":"FMA"},{"coordinates":[-81.801749,27.752253],"place_name":"Fort Meade, Florida, United States","iata":"FME"},{"coordinates":[-5.068826,50.15522],"place_name":"Falmouth, Cornwall, England, United Kingdom","iata":"FMH"},{"coordinates":[-82.554016,35.60095],"place_name":"Asheville, North Carolina, United States","iata":"AVL"},{"coordinates":[4.805901,43.949249],"place_name":"Avignon, Vaucluse, France","iata":"AVN"},{"coordinates":[-75.881732,41.246482],"place_name":"Wilkes-Barre, Pennsylvania, United States","iata":"AVP"},{"coordinates":[6.001352,46.169546],"place_name":"Avully, Geneva, Switzerland","iata":"AVU"},{"coordinates":[144.425851,-38.084475],"place_name":"Avalon, Victoria, Australia","iata":"AVV"},{"coordinates":[-110.974848,32.222877],"place_name":"Tucson, Arizona, United States","iata":"AVW"},{"coordinates":[-73.169002,40.804265],"place_name":"Islandia, New York, United States","iata":"AVX"},{"coordinates":[38.476398,7.065289],"place_name":"Awasa, Sidama, Ethiopia","iata":"AWA"},{"coordinates":[-90.184539,35.14648],"place_name":"West Memphis, Arkansas, United States","iata":"AWM"},{"coordinates":[-63.0818298,18.1945854999999],"place_name":"Anguilla","iata":"AXA"},{"coordinates":[25.875327,40.845692],"place_name":"Alexandroupoli, East Macedonia and Thrace, Greece","iata":"AXD"},{"coordinates":[-77.047023,38.80511],"place_name":"Alexandria, Virginia, United States","iata":"AXN"},{"coordinates":[-99.333975,34.638126],"place_name":"Altus, Oklahoma, United States","iata":"AXS"},{"coordinates":[140.103467,39.719763],"place_name":"Japan, Akita秋田市","iata":"AXT"},{"coordinates":[-84.193559,40.567827],"place_name":"Wapakoneta, Ohio, United States","iata":"AXV"},{"coordinates":[-71.609436,42.538951],"place_name":"Devens, Massachusetts, United States","iata":"AYE"},{"coordinates":[-58.488461,-37.152779],"place_name":"Ayacucho, Buenos Aires Province, Argentina","iata":"AYP"},{"coordinates":[-71.58979,42.561202],"place_name":"Ayer, Massachusetts, United States","iata":"AYQ"},{"coordinates":[-95.456051,30.311877],"place_name":"Conroe, Texas, United States","iata":"CXO"},{"coordinates":[109.009195,-7.621528],"place_name":"Cilacap, Central Java, Indonesia","iata":"CXP"},{"coordinates":[-79.783252,19.722484],"place_name":"Cayman Brac, Cayman Brac, Cayman Islands","iata":"CYB"},{"coordinates":[-164.280425,60.15838],"place_name":"Chefornak, Alaska, United States","iata":"CYF"},{"coordinates":[0.529276,51.380485],"place_name":"Chatham, Medway, England, United Kingdom","iata":"CYM"},{"coordinates":[-56.020973,-34.817336],"place_name":"Colonia Nicolich, Canelones, Uruguay","iata":"CYR"},{"coordinates":[-53.605805,-28.645056],"place_name":"Cruz Alta, Rio Grande do Sul, Brazil","iata":"CZB"},{"coordinates":[-117.566445,33.875295],"place_name":"Corona, California, United States","iata":"CZE"},{"coordinates":[18.4233,-33.9258],"place_name":"City of Cape Town, Western Cape, South Africa","iata":"CZF"},{"coordinates":[-121.890402,45.669513],"place_name":"Cascade Locks, Oregon, United States","iata":"CZK"},{"coordinates":[-85.668603,41.84116],"place_name":"Constantine, Michigan, United States","iata":"CZL"},{"coordinates":[-86.916389,20.486389],"place_name":"Cozumel, Quintana Roo, Mexico","iata":"CZM"},{"coordinates":[37.1795009,-11.2160787],"place_name":"Chiwana, Ruvuma, Tanzania","iata":"CZN"},{"coordinates":[-72.670387,-7.630796],"place_name":"Cruzeiro do Sul, Acre, Brazil","iata":"CZS"},{"coordinates":[-66.3172368,18.3405895],"place_name":"Corozal, Puerto Rico","iata":"CZU"},{"coordinates":[19.113213,50.812047],"place_name":"Częstochowa, Silesian Voivodeship, Poland","iata":"CZW"},{"coordinates":[-77.152107,38.713042],"place_name":"Fort Belvoir, Virginia, United States","iata":"DAA"},{"coordinates":[-81.022833,29.210815],"place_name":"Daytona Beach, Florida, United States","iata":"DAB"},{"coordinates":[90.402615,23.786198],"place_name":"Dhaka, Dhaka, Bangladesh","iata":"DAC"},{"coordinates":[-5.9252734,7.1762895],"place_name":"Danangoro, Sassandra-Marahoué, Côte d'Ivoire","iata":"DAD"},{"coordinates":[-117.017208,34.895768],"place_name":"Barstow, California, United States","iata":"DAG"},{"coordinates":[23.728305,37.983941],"place_name":"Athina, Attica, Greece","iata":"DAH"},{"coordinates":[18.4233,-33.9258],"place_name":"City of Cape Town, Western Cape, South Africa","iata":"EHM"},{"coordinates":[-1.1541,50.6551],"place_name":"Sandown, Isle of Wight, England, United Kingdom","iata":"EHN"},{"coordinates":[-72.612035,41.782322],"place_name":"East Hartford, Connecticut, United States","iata":"EHT"},{"coordinates":[-1.8559715,4.872975],"place_name":"Eian, Western, Ghana","iata":"EIA"},{"coordinates":[10.319356,50.974713],"place_name":"Eisenach, Thuringia, Germany","iata":"EIB"},{"coordinates":[-147.716675,64.837845],"place_name":"Fairbanks, Alaska, United States","iata":"EIL"},{"coordinates":[5.478633,51.439265],"place_name":"Eindhoven, North Brabant, Netherlands","iata":"EIN"},{"coordinates":[-73.169002,40.804265],"place_name":"Islandia, New York, United States","iata":"EIS"},{"coordinates":[-73.852563,7.067331],"place_name":"Barrancabermeja, Santander, Colombia","iata":"EJA"},{"coordinates":[-124.163673,40.802071],"place_name":"Eureka, California, United States","iata":"EKA"},{"coordinates":[-85.976667,41.681994],"place_name":"Elkhart, Indiana, United States","iata":"EKI"},{"coordinates":[-75.126841,40.077055],"place_name":"Elkins Park, Pennsylvania, United States","iata":"EKN"},{"coordinates":[-115.763162,40.832471],"place_name":"Elko, Nevada, United States","iata":"EKO"},{"coordinates":[16.505147,59.371738],"place_name":"Eskilstuna, Södermanland, Sweden","iata":"EKT"},{"coordinates":[-73.974241,9.008779],"place_name":"El Banco, Magdalena, Colombia","iata":"ELB"},{"coordinates":[-92.666267,33.20763],"place_name":"El Dorado, Arkansas, United States","iata":"ELD"},{"coordinates":[25.3555558,13.6238245],"place_name":"الفاشر, North Darfur, Sudan","iata":"ELF"},{"coordinates":[15.18286,8.17891],"place_name":"Elephants, North, Cameroon","iata":"ELH"},{"coordinates":[-99.404259,35.411994],"place_name":"Elk City, Oklahoma, United States","iata":"ELK"},{"coordinates":[-76.807734,42.089797],"place_name":"Elmira, New York, United States","iata":"ELM"},{"coordinates":[-120.545122,46.997064],"place_name":"Ellensburg, Washington, United States","iata":"ELN"},{"coordinates":[-106.4410954,31.7867031],"place_name":"El Paso, Texas, United States","iata":"ELP"},{"coordinates":[-13.1126658,10.4919719],"place_name":"Gassimouya Gassimouya, Télimélé, Guinea","iata":"ELQ"},{"coordinates":[27.904,-33.0154],"place_name":"East London, Eastern Cape, South Africa","iata":"ELS"},{"coordinates":[4.351697,50.846557],"place_name":"Brussels, Brussels-Capital, Belgium","iata":"ELT"},{"coordinates":[6.860349,33.361177],"place_name":"El Oued, El Oued, Algeria","iata":"ELU"},{"coordinates":[-136.343333,58.194444],"place_name":"Elfin Cove, Alaska, United States","iata":"ELV"},{"coordinates":[-82.107358,41.367319],"place_name":"Elyria, Ohio, United States","iata":"ELY"},{"coordinates":[-77.948058,42.122013],"place_name":"Wellsville, New York, United States","iata":"ELZ"},{"coordinates":[14.607455,36.950734],"place_name":"Comiso, Ragusa, Italy","iata":"CIY"},{"coordinates":[-78.517306,-7.156668],"place_name":"Cajamarca, Cajamarca, Peru","iata":"CJA"},{"coordinates":[76.962842,11.001812],"place_name":"Coimbatore, Tamil Nadu, India","iata":"CJB"},{"coordinates":[-68.927218,-22.462392],"place_name":"Calama, Antofagasta, Chile","iata":"CJC"},{"coordinates":[-106.455581,31.709796],"place_name":"Ciudad Juárez, Chihuahua, Mexico","iata":"CJS"},{"coordinates":[126.513059,33.493057],"place_name":"Jeju-si, Jeju-do, South Korea","iata":"CJU"},{"coordinates":[-95.551674,42.749428],"place_name":"Cherokee, Iowa, United States","iata":"CKA"},{"coordinates":[-80.344534,39.280645],"place_name":"Clarksburg, West Virginia, United States","iata":"CKB"},{"coordinates":[106.5478767,29.5647398],"place_name":"Chongqing, China","iata":"CKG"},{"coordinates":[-90.570207,34.200648],"place_name":"Clarksdale, Mississippi, United States","iata":"CKM"},{"coordinates":[-96.608117,47.773999],"place_name":"Crookston, Minnesota, United States","iata":"CKN"},{"coordinates":[-89.776196,35.155645],"place_name":"Cordova, Tennessee, United States","iata":"CKU"},{"coordinates":[-87.35887,36.527761],"place_name":"Clarksville, Tennessee, United States","iata":"CKV"},{"coordinates":[-13.6998434,9.5170602],"place_name":"Conakry, Guinea","iata":"CKY"},{"coordinates":[-122.626373,38.958231],"place_name":"Clearlake, California, United States","iata":"CLC"},{"coordinates":[-81.693445,41.505161],"place_name":"Cleveland, Ohio, United States","iata":"CLE"},{"coordinates":[23.589954,46.769379],"place_name":"Cluj-Napoca, Cluj, Romania","iata":"CLJ"},{"coordinates":[-82.919921,42.586979],"place_name":"Clinton Township, Michigan, United States","iata":"CLK"},{"coordinates":[-96.307104,30.595529],"place_name":"College Station, Texas, United States","iata":"CLL"},{"coordinates":[-123.430741,48.118146],"place_name":"Port Angeles, Washington, United States","iata":"CLM"},{"coordinates":[-76.532494,3.451792],"place_name":"Cali, Valle del Cauca, Colombia","iata":"CLO"},{"coordinates":[-122.478836,48.754401],"place_name":"Bellingham, Washington, United States","iata":"BLI"},{"coordinates":[-3.0547952,53.8186913],"place_name":"Blackpool, Blackpool, England, United Kingdom","iata":"BLK"},{"coordinates":[9.119583,55.724702],"place_name":"Billund, Southern Denmark, Denmark","iata":"BLL"},{"coordinates":[-74.021804,40.178447],"place_name":"Belmar, New Jersey, United States","iata":"BLM"},{"coordinates":[-77.128628,-12.06239],"place_name":"Bellavista, Callao, Peru","iata":"BLP"},{"coordinates":[11.342633,44.49382],"place_name":"Bologna, Bologna, Italy","iata":"BLQ"},{"coordinates":[77.5913,12.97912],"place_name":"Bengaluru, Karnataka, India","iata":"BLR"},{"coordinates":[-89.983994,38.52005],"place_name":"Belleville, Illinois, United States","iata":"BLV"},{"coordinates":[-157.7211,21.346304],"place_name":"Waimanalo, Hawaii, United States","iata":"BLW"},{"coordinates":[152.677505,-27.901388],"place_name":"Blantyre, Queensland, Australia","iata":"BLZ"},{"coordinates":[18.071093,59.325117],"place_name":"Stockholm, Stockholm, Sweden","iata":"BMA"},{"coordinates":[-86.534288,39.16704],"place_name":"Bloomington, Indiana, United States","iata":"BMG"},{"coordinates":[-86.534288,39.16704],"place_name":"Bloomington, Indiana, United States","iata":"BMI"},{"coordinates":[6.673175,53.58491],"place_name":"Borkum, Kreis Leer, Lower Saxony, Germany","iata":"BMK"},{"coordinates":[7.374962,53.728307],"place_name":"Baltrum, Kreis Aurich, Lower Saxony, Germany","iata":"BMR"},{"coordinates":[-94.101846,30.086046],"place_name":"Beaumont, Texas, United States","iata":"BMT"},{"coordinates":[118.727689,-8.453409],"place_name":"Bima, West Nusa Tenggara, Indonesia","iata":"BMU"},{"coordinates":[-122.08321,37.389389],"place_name":"Mountain View, California, United States","iata":"BMX"},{"coordinates":[-86.774298,36.162277],"place_name":"Nashville, Tennessee, United States","iata":"BNA"},{"coordinates":[2.42667424920265,10.3383829799812],"place_name":"Benin","iata":"BNC"},{"coordinates":[56.292724,27.191989],"place_name":"Bandar Abbas, Hormozgan, Iran","iata":"BND"},{"coordinates":[153.023499,-27.468968],"place_name":"Brisbane, Queensland, Australia","iata":"BNE"},{"coordinates":[-77.803897,43.18645],"place_name":"Spencerport, New York, United States","iata":"CSP"},{"coordinates":[-94.361348,41.0586],"place_name":"Creston, Iowa, United States","iata":"CSQ"},{"coordinates":[-85.026902,35.948957],"place_name":"Crossville, Tennessee, United States","iata":"CSV"},{"coordinates":[113.07483,28.249193],"place_name":"Changsha Shi, Hunan, China","iata":"CSX"},{"coordinates":[15.087372,37.502361],"place_name":"Catania, Catania, Italy","iata":"CTA"},{"coordinates":[-112.326162,48.63304],"place_name":"Cut Bank, Montana, United States","iata":"CTB"},{"coordinates":[-75.527122,10.419584],"place_name":"Cartagena, Bolívar, Colombia","iata":"CTG"},{"coordinates":[-75.823836,39.983162],"place_name":"Coatesville, Pennsylvania, United States","iata":"CTH"},{"coordinates":[-88.300553,18.514587],"place_name":"Chetumal, Quintana Roo, Mexico","iata":"CTM"},{"coordinates":[-72.743433,40.906487],"place_name":"Calverton, New York, United States","iata":"CTO"},{"coordinates":[-53.369266,-33.519557],"place_name":"Santa Vitória do Palmar, Rio Grande do Sul, Brazil","iata":"CTQ"},{"coordinates":[141.354292,43.061936],"place_name":"Japan, Hokkaido札幌市","iata":"CTS"},{"coordinates":[5.776111,43.202849],"place_name":"Le Castellet, Var, France","iata":"CTT"},{"coordinates":[104.063372,30.659863],"place_name":"Chengdu Shi, Sichuan, China","iata":"CTU"},{"coordinates":[-82.919921,42.586979],"place_name":"Clinton Township, Michigan, United States","iata":"CTZ"},{"coordinates":[-73.129056,3.06508799999999],"place_name":"Colombia","iata":"CUB"},{"coordinates":[-72.509124,7.904034],"place_name":"San José de Cúcuta, Norte de Santander, Colombia","iata":"CUC"},{"coordinates":[-79.004374,-2.897172],"place_name":"Cuenca, Azuay, Ecuador","iata":"CUE"},{"coordinates":[-96.76697,35.985064],"place_name":"Cushing, Oklahoma, United States","iata":"CUH"},{"coordinates":[-107.393395,24.797897],"place_name":"Culiacán, Sinaloa, Mexico","iata":"CUL"},{"coordinates":[-80.202117,22.149384],"place_name":"Cumanayagua, Cienfuegos, Cuba","iata":"CUM"},{"coordinates":[-86.851047,21.161785],"place_name":"Cancún, Quintana Roo, Mexico","iata":"CUN"},{"coordinates":[40.236354,37.916222],"place_name":"Diyarbakir, Diyarbakır, Türkiye","iata":"DIY"},{"coordinates":[103.607781,-1.629692],"place_name":"Jambi, Jambi, Indonesia","iata":"DJB"},{"coordinates":[38.65,9.43333],"place_name":"Derba, Oromia, Ethiopia","iata":"DJE"},{"coordinates":[9.484194,24.553885],"place_name":"Djanet, Illizi, Algeria","iata":"DJG"},{"coordinates":[140.703739,-2.538754],"place_name":"Jayapura, Papua, Indonesia","iata":"DJJ"},{"coordinates":[-145.555695,64.041109],"place_name":"Delta Junction, Alaska, United States","iata":"DJN"},{"coordinates":[-17.457171,14.712019],"place_name":"Dakar, Dakar, Senegal","iata":"DKR"},{"coordinates":[9.707925,4.0424],"place_name":"Douala, Littoral, Cameroon","iata":"DLA"},{"coordinates":[121.628294,38.918171],"place_name":"Dalian Shi, Liaoning, China","iata":"DLC"},{"coordinates":[8.207681,60.533276],"place_name":"Geilo, Viken, Norway","iata":"DLD"},{"coordinates":[-82.413113,8.564803],"place_name":"Dolega, Chiriquí, Panama","iata":"DLE"},{"coordinates":[-100.894698,29.365541],"place_name":"Del Rio, Texas, United States","iata":"DLF"},{"coordinates":[-158.4575,59.039722],"place_name":"Dillingham, Alaska, United States","iata":"DLG"},{"coordinates":[-92.125122,46.772932],"place_name":"Duluth, Minnesota, United States","iata":"DLH"},{"coordinates":[111.938774,2.741152],"place_name":"Dalat, Sarawak, Malaysia","iata":"DLI"},{"coordinates":[28.808262,36.766392],"place_name":"Dalaman, Muğla, Türkiye","iata":"DLM"},{"coordinates":[-110.974848,32.222877],"place_name":"Tucson, Arizona, United States","iata":"DMA"},{"coordinates":[37.6174943,55.7504461],"place_name":"Moscow, Russia","iata":"DME"},{"coordinates":[100.4935089,13.7524938],"place_name":"Bangkok, Thailand","iata":"DMK"},{"coordinates":[50.0982,26.4344],"place_name":"Addammam, Eastern, Saudi Arabia","iata":"DMM"},{"coordinates":[-107.758198,32.262742],"place_name":"Deming, New Mexico, United States","iata":"DMN"},{"coordinates":[127.80566,26.334374],"place_name":"Japan, Okinawa沖縄市","iata":"DNA"},{"coordinates":[-106.325138,42.850119],"place_name":"Casper, Wyoming, United States","iata":"CPR"},{"coordinates":[-90.187612,38.571336],"place_name":"Cahokia, Illinois, United States","iata":"CPS"},{"coordinates":[18.4289,-33.9351],"place_name":"Cape Town, Western Cape, South Africa","iata":"CPT"},{"coordinates":[-47.06083,-22.90556],"place_name":"Campinas, São Paulo, Brazil","iata":"CPV"},{"coordinates":[1.853845,50.952477],"place_name":"Calais, Pas-de-Calais, France","iata":"CQF"},{"coordinates":[-3.928514,38.98542],"place_name":"Ciudad Real, Ciudad Real, Spain","iata":"CQM"},{"coordinates":[23.796561,44.319016],"place_name":"Craiova, Dolj, Romania","iata":"CRA"},{"coordinates":[-83.920438,9.864244],"place_name":"Cartago, Cartago, Costa Rica","iata":"CRC"},{"coordinates":[-67.475262,-45.863202],"place_name":"Comodoro Rivadavia, Chubut, Argentina","iata":"CRD"},{"coordinates":[-78.890041,33.695646],"place_name":"Myrtle Beach, South Carolina, United States","iata":"CRE"},{"coordinates":[-81.655651,30.332184],"place_name":"Jacksonville, Florida, United States","iata":"CRG"},{"coordinates":[4.443624,50.412033],"place_name":"Charleroi, Hainaut, Belgium","iata":"CRL"},{"coordinates":[124.636592,12.499656],"place_name":"Catarman, Northern Samar, Philippines","iata":"CRM"},{"coordinates":[-97.4032908,27.7635566],"place_name":"Corpus Christi, Texas, United States","iata":"CRP"},{"coordinates":[-91.961243,33.128178],"place_name":"Crossett, Arkansas, United States","iata":"CRT"},{"coordinates":[-61.449451,12.487534],"place_name":"Carriacou & Petite Martinique, Carriacou Island, Grenada","iata":"CRU"},{"coordinates":[17.127196,39.080622],"place_name":"Crotone, Crotone, Italy","iata":"CRV"},{"coordinates":[-79.940273,32.787601],"place_name":"Charleston, South Carolina, United States","iata":"CRW"},{"coordinates":[-97.064732,33.154009],"place_name":"Corinth, Texas, United States","iata":"CRX"},{"coordinates":[22.218223,45.410611],"place_name":"Caransebeș, Caraș-Severin, Romania","iata":"CSB"},{"coordinates":[2.473377,49.260791],"place_name":"Creil, Oise, France","iata":"CSF"},{"coordinates":[-14.8208799701359,15.2214469730201],"place_name":"Senegal","iata":"CSK"},{"coordinates":[-120.659616,35.282753],"place_name":"San Luis Obispo, California, United States","iata":"CSL"},{"coordinates":[-82.919921,42.586979],"place_name":"Clinton Township, Michigan, United States","iata":"CSM"},{"coordinates":[-96.218156,19.201281],"place_name":"Oasis, Veracruz, Mexico","iata":"DAK"},{"coordinates":[-96.796856,32.776272],"place_name":"Dallas, Texas, United States","iata":"DAL"},{"coordinates":[36.3095814,33.5130695],"place_name":"Damascus, Syria","iata":"DAM"},{"coordinates":[-79.395023,36.585972],"place_name":"Danville, Virginia, United States","iata":"DAN"},{"coordinates":[39.279,-6.818],"place_name":"Dar es Salaam, Dar es Salaam, Tanzania","iata":"DAR"},{"coordinates":[-82.428628,8.437147],"place_name":"David, Chiriquí, Panama","iata":"DAV"},{"coordinates":[-81.022833,29.210815],"place_name":"Daytona Beach, Florida, United States","iata":"DAY"},{"coordinates":[28.672087,30.993977],"place_name":"Al Alamin Marina, Matrouh, Egypt","iata":"DBB"},{"coordinates":[-6.2602964,53.3498006],"place_name":"Dublin, Ireland","iata":"DBN"},{"coordinates":[-90.664797,42.500622],"place_name":"Dubuque, Iowa, United States","iata":"DBQ"},{"coordinates":[18.092495,42.650247],"place_name":"Dubrovnik, Dubrovnik-Neretva, Croatia","iata":"DBV"},{"coordinates":[-77.036543,38.895037],"place_name":"Washington, District of Columbia, United States","iata":"DCA"},{"coordinates":[8.968841,39.311738],"place_name":"Decimomannu, Cagliari, Italy","iata":"DCI"},{"coordinates":[2.241795,43.603678],"place_name":"Castres, Tarn, France","iata":"DCM"},{"coordinates":[-84.296069,33.773758],"place_name":"Decatur, Georgia, United States","iata":"DCR"},{"coordinates":[-84.296069,33.773758],"place_name":"Decatur, Georgia, United States","iata":"DCU"},{"coordinates":[-100.017079,37.752798],"place_name":"Dodge City, Kansas, United States","iata":"DDC"},{"coordinates":[-66.2615332,18.4593799],"place_name":"Dorado, Puerto Rico","iata":"DDP"},{"coordinates":[21.625978,47.531399],"place_name":"Debrecen, Hajdú-Bihar, Hungary","iata":"DEB"},{"coordinates":[-84.296069,33.773758],"place_name":"Decatur, Georgia, United States","iata":"DEC"},{"coordinates":[-91.78591,43.304161],"place_name":"Decorah, Iowa, United States","iata":"DEH"},{"coordinates":[-120.778535,37.432159],"place_name":"Delhi, California, United States","iata":"DEL"},{"coordinates":[10.1806597,47.9863226],"place_name":"Memmingen, Bavaria, Germany","iata":"FMM"},{"coordinates":[-83.377155,42.485313],"place_name":"Farmington Hills, Michigan, United States","iata":"FMN"},{"coordinates":[7.625188,51.96251],"place_name":"Münster, North Rhine-Westphalia, Germany","iata":"FMO"},{"coordinates":[-91.315191,40.62994],"place_name":"Fort Madison, Iowa, United States","iata":"FMS"},{"coordinates":[-81.872308,26.640628],"place_name":"Fort Myers, Florida, United States","iata":"FMY"},{"coordinates":[-13.272474,8.470207],"place_name":"Freetown, Western Area, Sierra Leone","iata":"FNA"},{"coordinates":[13.260278,53.557446],"place_name":"Neubrandenburg, Kreis Mecklenburgische Seenplatte, Mecklenburg-Western Pomerania, Germany","iata":"FNB"},{"coordinates":[-16.908678,32.64965],"place_name":"Funchal, Madeira, Portugal","iata":"FNC"},{"coordinates":[4.3595932,43.8348712],"place_name":"Nîmes, Gard, France","iata":"FNI"},{"coordinates":[125.7473609,39.0167979],"place_name":"Pyongyang, North Korea","iata":"FNJ"},{"coordinates":[-105.066809,40.550853],"place_name":"Fort Collins, Colorado, United States","iata":"FNL"},{"coordinates":[100.26019,5.294963],"place_name":"Bayan Lepas, Penang, Malaysia","iata":"FNR"},{"coordinates":[-83.690021,43.016169],"place_name":"Flint, Michigan, United States","iata":"FNT"},{"coordinates":[-94.168016,42.497469],"place_name":"Fort Dodge, Iowa, United States","iata":"FOD"},{"coordinates":[-95.677556,39.049011],"place_name":"Topeka, Kansas, United States","iata":"FOE"},{"coordinates":[15.543259,41.462048],"place_name":"Foggia, Foggia, Italy","iata":"FOG"},{"coordinates":[-72.643017,40.81022],"place_name":"Westhampton Beach, New York, United States","iata":"FOK"},{"coordinates":[14.6587298,7.9811901],"place_name":"Foumbang, North, Cameroon","iata":"FOM"},{"coordinates":[-84.369092,33.622054],"place_name":"Forest Park, Georgia, United States","iata":"FOP"},{"coordinates":[-38.521799,-3.730451],"place_name":"Fortaleza, Ceará, Brazil","iata":"FOR"},{"coordinates":[-78.6953623,26.535681],"place_name":"Freeport, Bahamas","iata":"FPO"},{"coordinates":[-80.325606,27.446706],"place_name":"Fort Pierce, Florida, United States","iata":"FPR"},{"coordinates":[-83.627932,41.557118],"place_name":"Perrysburg, Ohio, United States","iata":"FPY"},{"coordinates":[8.682092,50.110644],"place_name":"Frankfurt am Main, Hesse, Germany","iata":"FRA"},{"coordinates":[-69.450588,45.187119],"place_name":"Abbot, Maine, United States","iata":"FRF"},{"coordinates":[-73.445856,40.732881],"place_name":"Farmingdale, New York, United States","iata":"FRG"},{"coordinates":[-86.619966,38.550255],"place_name":"French Lick, Indiana, United States","iata":"FRH"},{"coordinates":[-96.814748,39.088364],"place_name":"Fort Riley, Kansas, United States","iata":"FRI"},{"coordinates":[6.736018,43.433031],"place_name":"Fréjus, Var, France","iata":"FRJ"},{"coordinates":[12.041273,44.222728],"place_name":"Forlì, Forlì-Cesena, Italy","iata":"FRL"},{"coordinates":[-1.624957,49.642534],"place_name":"Cherbourg-en-Cotentin, Manche, France","iata":"CER"},{"coordinates":[-86.8788302,12.4348568],"place_name":"León, Nicaragua","iata":"CET"},{"coordinates":[-82.836411,34.685075],"place_name":"Clemson, South Carolina, United States","iata":"CEU"},{"coordinates":[-85.141075,39.641159],"place_name":"Connersville, Indiana, United States","iata":"CEV"},{"coordinates":[-86.570508,30.762133],"place_name":"Crestview, Florida, United States","iata":"CEW"},{"coordinates":[-88.314761,36.610333],"place_name":"Murray, Kentucky, United States","iata":"CEY"},{"coordinates":[-108.584074,37.349453],"place_name":"Cortez, Colorado, United States","iata":"CEZ"},{"coordinates":[-43.209373,-22.911014],"place_name":"Rio de Janeiro, Rio de Janeiro, Brazil","iata":"CFB"},{"coordinates":[-96.369963,30.674364],"place_name":"Bryan, Texas, United States","iata":"CFD"},{"coordinates":[3.081943,45.777455],"place_name":"Clermont-Ferrand, Puy-de-Dôme, France","iata":"CFE"},{"coordinates":[-8.109849,54.65437],"place_name":"Donegal, Donegal, Ireland","iata":"CFN"},{"coordinates":[-0.363562,49.18134],"place_name":"Caen, Calvados, France","iata":"CFR"},{"coordinates":[-74.163755,40.858433],"place_name":"Clifton, New Jersey, United States","iata":"CFT"},{"coordinates":[-78.405577,42.96006],"place_name":"Corfu, New York, United States","iata":"CFU"},{"coordinates":[-95.616363,37.0373],"place_name":"Coffeyville, Kansas, United States","iata":"CFV"},{"coordinates":[-6.392162,54.45072],"place_name":"Craigavon, Armagh City and Banbridge and Craigavon, Northern Ireland, United Kingdom","iata":"CGA"},{"coordinates":[-56.09913,-15.598669],"place_name":"Cuiabá, Mato Grosso, Brazil","iata":"CGB"},{"coordinates":[111.692872,29.034552],"place_name":"Changde Shi, Hunan, China","iata":"CGD"},{"coordinates":[-81.693445,41.505161],"place_name":"Cleveland, Ohio, United States","iata":"CGF"},{"coordinates":[-46.633382,-23.550651],"place_name":"São Paulo, São Paulo, Brazil","iata":"CGH"},{"coordinates":[-89.523036,37.303493],"place_name":"Cape Girardeau, Missouri, United States","iata":"CGI"},{"coordinates":[106.827183,-6.1753942],"place_name":"Jakarta, Indonesia","iata":"CGK"},{"coordinates":[6.9598022,50.9390823],"place_name":"Köln, North Rhine-Westphalia, Germany","iata":"CGN"},{"coordinates":[113.619148,34.748724],"place_name":"Zhengzhou Shi, Henan, China","iata":"CGO"},{"coordinates":[91.826048,22.336471],"place_name":"Chittagong, Chattogram, Bangladesh","iata":"CGP"},{"coordinates":[125.317122,43.813074],"place_name":"Changchun Shi, Jilin, China","iata":"CGQ"},{"coordinates":[-54.616295,-20.464017],"place_name":"Campo Grande, Mato Grosso do Sul, Brazil","iata":"CGR"},{"coordinates":[-87.624421,41.875562],"place_name":"Chicago, Illinois, United States","iata":"CGX"},{"coordinates":[124.6421532,8.4756417],"place_name":"Cagayan de Oro, Philippines","iata":"CGY"},{"coordinates":[-85.466903,37.809228],"place_name":"Bardstown, Kentucky, United States","iata":"BRY"},{"coordinates":[-47.882317,-15.793404],"place_name":"Brasília, Federal District, Brazil","iata":"BSB"},{"coordinates":[-77.403439,6.224564],"place_name":"Bahía Solano, Chocó, Colombia","iata":"BSC"},{"coordinates":[104.037825,1.106103],"place_name":"Batam, Riau Islands, Indonesia","iata":"BSG"},{"coordinates":[-0.140056,50.821463],"place_name":"Brighton, Brighton and Hove, England, United Kingdom","iata":"BSH"},{"coordinates":[7.338927,47.7467],"place_name":"Mulhouse, Haut-Rhin, France","iata":"BSL"},{"coordinates":[-97.7437,30.271129],"place_name":"Austin, Texas, United States","iata":"BSM"},{"coordinates":[-109.928408,31.448155],"place_name":"Bisbee, Arizona, United States","iata":"BSQ"},{"coordinates":[47.793478,30.515087],"place_name":"Al Basrah, Basra, Iraq","iata":"BSR"},{"coordinates":[18.5138807,3.0589758],"place_name":"Bétou, Likouala, Republic of the Congo","iata":"BTB"},{"coordinates":[-111.880482,40.889461],"place_name":"Bountiful, Utah, United States","iata":"BTF"},{"coordinates":[112.526948,-7.871167],"place_name":"Batu, East Java, Indonesia","iata":"BTH"},{"coordinates":[105.264374,-5.446071],"place_name":"Bandar Lampung, Lampung, Indonesia","iata":"BTJ"},{"coordinates":[101.633491,56.151709],"place_name":"Братск, Irkutsk, Russia","iata":"BTK"},{"coordinates":[-85.182427,42.319255],"place_name":"Battle Creek, Michigan, United States","iata":"BTL"},{"coordinates":[100.369721,5.408202],"place_name":"Butterworth, Penang, Malaysia","iata":"BTM"},{"coordinates":[-79.895225,40.861021],"place_name":"Butler, Pennsylvania, United States","iata":"BTP"},{"coordinates":[-91.18738,30.44596],"place_name":"Baton Rouge, Louisiana, United States","iata":"BTR"},{"coordinates":[17.109306,48.151699],"place_name":"Bratislava, Bratislava, Slovakia","iata":"BTS"},{"coordinates":[-81.865103,35.334011],"place_name":"Forest City, North Carolina, United States","iata":"FXY"},{"coordinates":[-145.273888,66.564722],"place_name":"Fort Yukon, Alaska, United States","iata":"FYU"},{"coordinates":[-78.878292,35.052576],"place_name":"Fayetteville, North Carolina, United States","iata":"FYV"},{"coordinates":[-2.597299,51.453802],"place_name":"Bristol, Bristol, England, United Kingdom","iata":"FZO"},{"coordinates":[-85.99896,34.010929],"place_name":"Gadsden, Alabama, United States","iata":"GAD"},{"coordinates":[-77.192922,39.139919],"place_name":"Gaithersburg, Maryland, United States","iata":"GAI"},{"coordinates":[140.34002,38.255339],"place_name":"Japan, Yamagata山形市","iata":"GAJ"},{"coordinates":[-73.691507,42.744245],"place_name":"Green Island, New York, United States","iata":"GAN"},{"coordinates":[-75.203478,20.14318],"place_name":"Guantánamo, Guantánamo, Cuba","iata":"GAO"},{"coordinates":[120.947943,15.312281],"place_name":"Gapan City, Nueva Ecija, Philippines","iata":"GAT"},{"coordinates":[91.753943,26.180598],"place_name":"Guwahati, Assam, India","iata":"GAU"},{"coordinates":[-80.931671,44.724391],"place_name":"Kemble, Ontario, Canada","iata":"GBA"},{"coordinates":[25.908847,-24.658136],"place_name":"Gaborone City, Gaborone, Botswana","iata":"GBE"},{"coordinates":[5.486625,48.386104],"place_name":"Grand, Grand Est, France","iata":"GBI"},{"coordinates":[7.13494,44.031853],"place_name":"Marie, Alpes-Maritimes, France","iata":"GBJ"},{"coordinates":[-76.610759,39.290882],"place_name":"Baltimore, Maryland, United States","iata":"GBO"},{"coordinates":[-68.011968,46.860557],"place_name":"Caribou, Maine, United States","iata":"CAR"},{"coordinates":[-7.533141,33.572558],"place_name":"Casablanca, Casablanca-Settat, Morocco","iata":"CAS"},{"coordinates":[-9.42045,38.696892],"place_name":"Cascais, Lisbon, Portugal","iata":"CAT"},{"coordinates":[-41.33269,-21.755862],"place_name":"Campos dos Goytacazes, Rio de Janeiro, Brazil","iata":"CAW"},{"coordinates":[-2.936231,54.894848],"place_name":"Carlisle, Cumbria, England, United Kingdom","iata":"CAX"},{"coordinates":[-52.325831,4.937114],"place_name":"Cayenne, French Guiana","iata":"CAY"},{"coordinates":[-66.156898,-17.393611],"place_name":"Cochabamba, Cochabamba, Bolivia","iata":"CBB"},{"coordinates":[-95.861391,41.262128],"place_name":"Council Bluffs, Iowa, United States","iata":"CBF"},{"coordinates":[0.123582,52.203482],"place_name":"Cambridge, Cambridgeshire, England, United Kingdom","iata":"CBG"},{"coordinates":[-2.218005,31.616536],"place_name":"Bechar, Béchar, Algeria","iata":"CBH"},{"coordinates":[-101.052688,39.395966],"place_name":"Colby, Kansas, United States","iata":"CBK"},{"coordinates":[108.560848,-6.713704],"place_name":"Cirebon, West Java, Indonesia","iata":"CBN"},{"coordinates":[124.2351714,7.1970344],"place_name":"Cotabato City, Philippines","iata":"CBO"},{"coordinates":[8.348425,5.025292],"place_name":"Calabar Municipal, Cross River, Nigeria","iata":"CBQ"},{"coordinates":[149.101268,-35.297591],"place_name":"Canberra, Australian Capital Territory, Australia","iata":"CBR"},{"coordinates":[-71.441405,10.395075],"place_name":"Cabimas, Zulia, Venezuela","iata":"CBS"},{"coordinates":[14.3279155,51.7598701],"place_name":"Cottbus, Brandenburg, Germany","iata":"CBU"},{"coordinates":[-90.373507,15.4702],"place_name":"Cobán, Alta Verapaz, Guatemala","iata":"CBV"},{"coordinates":[-89.65509,37.180051],"place_name":"Chaffee, Missouri, United States","iata":"CCA"},{"coordinates":[-117.648388,34.09751],"place_name":"Upland, California, United States","iata":"CCB"},{"coordinates":[-118.242766,34.053691],"place_name":"Los Angeles, California, United States","iata":"CCD"},{"coordinates":[2.3517134,43.2132751],"place_name":"Carcassonne, Aude, France","iata":"CCF"},{"coordinates":[-102.352121,31.39572],"place_name":"Crane, Texas, United States","iata":"CCG"},{"coordinates":[-73.05024,-36.827079],"place_name":"Concepción, Biobío, Chile","iata":"CCP"},{"coordinates":[-91.18738,30.44596],"place_name":"Baton Rouge, Louisiana, United States","iata":"EBR"},{"coordinates":[-93.825247,42.466307],"place_name":"Webster City, Iowa, United States","iata":"EBS"},{"coordinates":[4.387306,45.440147],"place_name":"Saint-Étienne, Loire, France","iata":"EBU"},{"coordinates":[-83.490252,44.279461],"place_name":"East Tawas, Michigan, United States","iata":"ECA"},{"coordinates":[-76.22477,36.295684],"place_name":"Elizabeth City, North Carolina, United States","iata":"ECG"},{"coordinates":[40.382741,39.778519],"place_name":"Tercan, Erzincan, Türkiye","iata":"ECN"},{"coordinates":[-1.613157,54.973847],"place_name":"Newcastle upon Tyne, Tyne and Wear, England, United Kingdom","iata":"ECS"},{"coordinates":[-3.703583,40.416705],"place_name":"Madrid, Madrid, Spain","iata":"ECV"},{"coordinates":[-76.607721,36.057938],"place_name":"Edenton, North Carolina, United States","iata":"EDE"},{"coordinates":[-149.894852,61.216313],"place_name":"Anchorage, Alaska, United States","iata":"EDF"},{"coordinates":[-76.294402,39.418719],"place_name":"Edgewood, Maryland, United States","iata":"EDG"},{"coordinates":[-3.188375,55.953346],"place_name":"Edinburgh, City of Edinburgh, Scotland, United Kingdom","iata":"EDI"},{"coordinates":[35.271548,0.519833],"place_name":"Eldoret, Uasin Gishu, Kenya","iata":"EDL"},{"coordinates":[-1.160387,46.162784],"place_name":"La Rochelle, Charente-Maritime, France","iata":"EDM"},{"coordinates":[-72.278426,42.933597],"place_name":"Keene, New Hampshire, United States","iata":"EEN"},{"coordinates":[-95.367697,29.758938],"place_name":"Houston, Texas, United States","iata":"EFD"},{"coordinates":[-92.172427,38.577359],"place_name":"Jefferson City, Missouri, United States","iata":"EFW"},{"coordinates":[0.487531,44.853457],"place_name":"Bergerac, Dordogne, France","iata":"EGC"},{"coordinates":[-106.380167,39.644021],"place_name":"Vail, Colorado, United States","iata":"EGE"},{"coordinates":[-71.619675,-33.045846],"place_name":"Valparaíso, Valparaíso, Chile","iata":"EGI"},{"coordinates":[22.4452278,13.4435],"place_name":"الجنينة, West Darfur, Sudan","iata":"EGN"},{"coordinates":[-100.493814,28.709934],"place_name":"Eagle Pass, Texas, United States","iata":"EGP"},{"coordinates":[-14.403526,65.262041],"place_name":"Egilsstaðir, Austurland, Iceland","iata":"EGS"},{"coordinates":[-68.9817448480808,12.178308183856],"place_name":"Curaçao","iata":"CUR"},{"coordinates":[-83.000707,39.96226],"place_name":"Columbus, Ohio, United States","iata":"CUS"},{"coordinates":[-106.090205,28.652381],"place_name":"Chihuahua, Chihuahua, Mexico","iata":"CUU"},{"coordinates":[-97.4032908,27.7635566],"place_name":"Corpus Christi, Texas, United States","iata":"CUX"},{"coordinates":[-71.978536,-13.517089],"place_name":"Cusco, Cusco, Peru","iata":"CUZ"},{"coordinates":[-79.990086,40.441694],"place_name":"Pittsburgh, Pennsylvania, United States","iata":"CVA"},{"coordinates":[-84.51246,39.101454],"place_name":"Cincinnati, Ohio, United States","iata":"CVG"},{"coordinates":[-119.702919,36.825228],"place_name":"Clovis, California, United States","iata":"CVN"},{"coordinates":[-73.754968,42.651167],"place_name":"Albany, New York, United States","iata":"CVO"},{"coordinates":[-118.396466,34.021122],"place_name":"Culver City, California, United States","iata":"CVR"},{"coordinates":[-119.702919,36.825228],"place_name":"Clovis, California, United States","iata":"CVS"},{"coordinates":[-1.510477,52.408181],"place_name":"Coventry, West Midlands, England, United Kingdom","iata":"CVT"},{"coordinates":[-89.629824,44.959602],"place_name":"Wausau, Wisconsin, United States","iata":"CWA"},{"coordinates":[-49.271272,-25.429596],"place_name":"Curitiba, Paraná, Brazil","iata":"CWB"},{"coordinates":[-3.179193,51.481655],"place_name":"Cardiff, Cardiff, Wales, United Kingdom","iata":"CWL"},{"coordinates":[-98.112822,32.808461],"place_name":"Mineral Wells, Texas, United States","iata":"CWO"},{"coordinates":[-123.113952,49.260872],"place_name":"Vancouver, British Columbia, Canada","iata":"CXH"},{"coordinates":[-51.17962,-29.168495],"place_name":"Caxias do Sul, Rio Grande do Sul, Brazil","iata":"CXJ"},{"coordinates":[-115.498703,32.679057],"place_name":"Calexico, California, United States","iata":"CXL"},{"coordinates":[6.524947,49.973276],"place_name":"Bitburg, Kreis Eifelkreis Bitburg-Prüm, Rhineland-Palatinate, Germany","iata":"BBJ"},{"coordinates":[-3.059459,42.91985],"place_name":"Berberana, Burgos, Spain","iata":"BBO"},{"coordinates":[-1.084934,50.688704],"place_name":"Bembridge, Isle of Wight, England, United Kingdom","iata":"BBP"},{"coordinates":[-61.733337,16.000078],"place_name":"Basse-Terre, Guadeloupe","iata":"BBR"},{"coordinates":[26.1027202,44.4361414],"place_name":"Bucharest, Romania","iata":"BBU"},{"coordinates":[-75.266289,40.152331],"place_name":"Blue Bell, Pennsylvania, United States","iata":"BBX"},{"coordinates":[-74.496865,20.347787],"place_name":"Baracoa, Guantánamo, Cuba","iata":"BCA"},{"coordinates":[-80.413677,37.229657],"place_name":"Blacksburg, Virginia, United States","iata":"BCB"},{"coordinates":[126.456525,-8.44531],"place_name":"Baukau, Baucau, Timor Leste","iata":"BCH"},{"coordinates":[26.915356,46.556049],"place_name":"Bacău, Bacău, Romania","iata":"BCM"},{"coordinates":[2.177432,41.382894],"place_name":"Barcelona, Barcelona, Spain","iata":"BCN"},{"coordinates":[-89.990625,29.854929],"place_name":"Belle Chasse, Louisiana, United States","iata":"BCS"},{"coordinates":[-80.083098,26.358689],"place_name":"Boca Raton, Florida, United States","iata":"BCT"},{"coordinates":[-79.872858,43.25608],"place_name":"Hamilton, Ontario, Canada","iata":"BDA"},{"coordinates":[-94.600171,48.712441],"place_name":"Baudette, Minnesota, United States","iata":"BDE"},{"coordinates":[-1.751919,53.794423],"place_name":"Bradford, West Yorkshire, England, United Kingdom","iata":"BDF"},{"coordinates":[-80.580005,35.409418],"place_name":"Concord, North Carolina, United States","iata":"CCR"},{"coordinates":[-66.914602,10.506098],"place_name":"Caracas, Capital District, Venezuela","iata":"CCS"},{"coordinates":[88.363881,22.572672],"place_name":"Kolkata, West Bengal, India","iata":"CCU"},{"coordinates":[-92.672411,43.066361],"place_name":"Charles City, Iowa, United States","iata":"CCY"},{"coordinates":[-113.061827,37.677424],"place_name":"Cedar City, Utah, United States","iata":"CDC"},{"coordinates":[12.137351,46.538333],"place_name":"Cortina d'Ampezzo, Belluno, Italy","iata":"CDF"},{"coordinates":[2.3483915,48.8534951],"place_name":"Paris, France","iata":"CDG"},{"coordinates":[-75.119891,39.94484],"place_name":"Camden, New Jersey, United States","iata":"CDH"},{"coordinates":[-83.033719,29.136729],"place_name":"Cedar Key, Florida, United States","iata":"CDK"},{"coordinates":[-75.119891,39.94484],"place_name":"Camden, New Jersey, United States","iata":"CDN"},{"coordinates":[-89.776196,35.155645],"place_name":"Cordova, Tennessee, United States","iata":"CDV"},{"coordinates":[-116.689416,43.667874],"place_name":"Caldwell, Idaho, United States","iata":"CDW"},{"coordinates":[-97.337545,37.692236],"place_name":"Wichita, Kansas, United States","iata":"CEA"},{"coordinates":[123.9020773,10.2931062],"place_name":"Cebu City, Philippines","iata":"CEB"},{"coordinates":[-124.201747,41.755948],"place_name":"Crescent City, California, United States","iata":"CEC"},{"coordinates":[-88.355086,42.22919],"place_name":"Village of Lakewood, Illinois, United States","iata":"CEE"},{"coordinates":[-93.292037,37.216678],"place_name":"Springfield, Missouri, United States","iata":"CEF"},{"coordinates":[-2.890896,53.190887],"place_name":"Chester, Cheshire West and Chester, England, United Kingdom","iata":"CEG"},{"coordinates":[99.835557,19.910114],"place_name":"Mueang Chiang Rai, Chiang Rai, Thailand","iata":"CEI"},{"coordinates":[61.402555,55.159841],"place_name":"Челябинск, Chelyabinsk, Russia","iata":"CEK"},{"coordinates":[7.013442,43.55152],"place_name":"Cannes, Alpes-Maritimes, France","iata":"CEQ"},{"coordinates":[-1.149646,52.953419],"place_name":"Nottingham, Nottingham, England, United Kingdom","iata":"EMA"},{"coordinates":[-122.419906,37.779026],"place_name":"San Francisco, California, United States","iata":"EMB"},{"coordinates":[7.20583,53.367054],"place_name":"Emden, Lower Saxony, Germany","iata":"EME"},{"coordinates":[6.8939,52.788937],"place_name":"Emmen, Drenthe, Netherlands","iata":"EML"},{"coordinates":[-151.258333,60.554444],"place_name":"Kenai, Alaska, United States","iata":"ENA"},{"coordinates":[6.18341,48.693722],"place_name":"Nancy, Meurthe-et-Moselle, France","iata":"ENC"},{"coordinates":[-97.879134,36.396762],"place_name":"Enid, Oklahoma, United States","iata":"END"},{"coordinates":[121.647964,-8.843915],"place_name":"Ende, East Nusa Tenggara, Indonesia","iata":"ENE"},{"coordinates":[23.566745,68.379665],"place_name":"Enontekiö, Lapland, Finland","iata":"ENF"},{"coordinates":[-7.638937,54.344854],"place_name":"Enniskillen, Fermanagh and Omagh, Northern Ireland, United Kingdom","iata":"ENK"},{"coordinates":[-122.96143,46.720449],"place_name":"Centralia, Washington, United States","iata":"ENL"},{"coordinates":[-149.093474,64.563907],"place_name":"Nenana, Alaska, United States","iata":"ENN"},{"coordinates":[-55.866949,-27.337611],"place_name":"Encarnación, Itapúa, Paraguay","iata":"ENO"},{"coordinates":[6.892192,52.2209424],"place_name":"Enschede, Overijssel, Netherlands","iata":"ENS"},{"coordinates":[-73.169002,40.804265],"place_name":"Islandia, New York, United States","iata":"ENT"},{"coordinates":[-114.030454,40.737401],"place_name":"Wendover, Utah, United States","iata":"ENV"},{"coordinates":[-87.821226,42.584677],"place_name":"Kenosha, Wisconsin, United States","iata":"ENW"},{"coordinates":[-75.573553,6.244338],"place_name":"Medellín, Antioquia, Colombia","iata":"EOH"},{"coordinates":[-96.140562,40.87],"place_name":"Weeping Water, Nebraska, United States","iata":"EPG"},{"coordinates":[6.450364,48.174768],"place_name":"Épinal, Vosges, France","iata":"EPL"},{"coordinates":[-86.4746238,11.8260251],"place_name":"El Portillo, Managua, Nicaragua","iata":"EPS"},{"coordinates":[-149.690791,61.248337],"place_name":"Fort Richardson, Alaska, United States","iata":"FRN"},{"coordinates":[5.049061,61.599233],"place_name":"Florø, Vestland, Norway","iata":"FRO"},{"coordinates":[-78.191772,38.917854],"place_name":"Front Royal, Virginia, United States","iata":"FRR"},{"coordinates":[-98.156119,29.133578],"place_name":"Floresville, Texas, United States","iata":"FRS"},{"coordinates":[-73.060474,-41.125846],"place_name":"Frutillar, Los Lagos, Chile","iata":"FRT"},{"coordinates":[74.6066926,42.8777895],"place_name":"Bishkek, Kyrgyzstan","iata":"FRU"},{"coordinates":[13.589513,-1.6343629],"place_name":"Franceville, Haut-Ogooué, Gabon","iata":"FRV"},{"coordinates":[-70.981293,44.016521],"place_name":"Fryeburg, Maine, United States","iata":"FRY"},{"coordinates":[9.27485,51.131196],"place_name":"Fritzlar, Kreis Schwalm-Eder-Kreis, Hesse, Germany","iata":"FRZ"},{"coordinates":[9.128285,41.48746],"place_name":"Figari, Corse-du-Sud, France","iata":"FSC"},{"coordinates":[-96.731393,43.546059],"place_name":"Sioux Falls, South Dakota, United States","iata":"FSD"},{"coordinates":[-98.398831,34.656899],"place_name":"Fort Sill, Oklahoma, United States","iata":"FSI"},{"coordinates":[-94.708288,37.839979],"place_name":"Fort Scott, Kansas, United States","iata":"FSK"},{"coordinates":[-94.424898,35.387222],"place_name":"Fort Smith, Arkansas, United States","iata":"FSM"},{"coordinates":[-92.401265,34.307041],"place_name":"Sheridan, Arkansas, United States","iata":"FSN"},{"coordinates":[-3.421486,56.203371],"place_name":"Kinross, Perth and Kinross, Scotland, United Kingdom","iata":"FSS"},{"coordinates":[-102.883663,30.891901],"place_name":"Fort Stockton, Texas, United States","iata":"FST"},{"coordinates":[-85.976032,37.902897],"place_name":"Fort Knox, Kentucky, United States","iata":"FTK"},{"coordinates":[-1.125946,38.180055],"place_name":"Fortuna, Murcia, Spain","iata":"FTL"},{"coordinates":[-60.543997,46.281433],"place_name":"Englishtown, Nova Scotia, Canada","iata":"FTU"},{"coordinates":[-97.332746,32.753177],"place_name":"Fort Worth, Texas, United States","iata":"FTW"},{"coordinates":[-84.390264,33.748992],"place_name":"Atlanta, Georgia, United States","iata":"FTY"},{"coordinates":[130.401751,33.589899],"place_name":"Japan, Fukuoka福岡市","iata":"FUK"},{"coordinates":[-117.929417,33.870822],"place_name":"Fullerton, California, United States","iata":"FUL"},{"coordinates":[179.1982548,-8.5199633],"place_name":"Funafuti, Funafuti, Tuvalu","iata":"FUN"},{"coordinates":[160.4458367,-11.7782096],"place_name":"Hutuna, Rennell and Bellona, Solomon Islands","iata":"FUT"},{"coordinates":[-85.138602,41.07999],"place_name":"Fort Wayne, Indiana, United States","iata":"FWA"},{"coordinates":[-97.332746,32.753177],"place_name":"Fort Worth, Texas, United States","iata":"FWH"},{"coordinates":[-5.110974,56.817829],"place_name":"Fort William, Highland, Scotland, United Kingdom","iata":"FWM"},{"coordinates":[-80.143379,26.122308],"place_name":"Fort Lauderdale, Florida, United States","iata":"FXE"},{"coordinates":[-104.984862,39.739236],"place_name":"Denver, Colorado, United States","iata":"DEN"},{"coordinates":[-83.176315,42.32226],"place_name":"Dearborn, Michigan, United States","iata":"DEO"},{"coordinates":[-83.04664,42.331551],"place_name":"Detroit, Michigan, United States","iata":"DET"},{"coordinates":[40.1499998,35.3333335],"place_name":"دير الزور, Deir ez-Zor, Syria","iata":"DEZ"},{"coordinates":[-84.35578,41.284493],"place_name":"Defiance, Ohio, United States","iata":"DFI"},{"coordinates":[-97.332746,32.753177],"place_name":"Fort Worth, Texas, United States","iata":"DFW"},{"coordinates":[-84.747714,33.751497],"place_name":"Douglasville, Georgia, United States","iata":"DGL"},{"coordinates":[-77.051086,38.331238],"place_name":"Dahlgren, Virginia, United States","iata":"DGN"},{"coordinates":[-104.654742,24.022008],"place_name":"Durango, Durango, Mexico","iata":"DGO"},{"coordinates":[26.5159337,55.8712267],"place_name":"Daugavpils, Latvia","iata":"DGP"},{"coordinates":[123.308045,9.305478],"place_name":"Dumaguete City, Negros Oriental, Philippines","iata":"DGT"},{"coordinates":[-84.747714,33.751497],"place_name":"Douglasville, Georgia, United States","iata":"DGW"},{"coordinates":[-69.415614,47.438682],"place_name":"Saint-Athanase, Quebec, Canada","iata":"DGX"},{"coordinates":[87.28381,26.81261],"place_name":"Dharan, Koshi Province, Nepal","iata":"DHA"},{"coordinates":[54.377401,24.453835],"place_name":"Abu Dhabi, Abu Dhabi, United Arab Emirates","iata":"DHF"},{"coordinates":[76.319672,32.214304],"place_name":"Dharamshala, Himachal Pradesh, India","iata":"DHM"},{"coordinates":[-85.393391,31.223743],"place_name":"Dothan, Alabama, United States","iata":"DHN"},{"coordinates":[4.760279,52.957976],"place_name":"Den Helder, North Holland, Netherlands","iata":"DHR"},{"coordinates":[51.5264162,25.2856329],"place_name":"Doha, Qatar","iata":"DIA"},{"coordinates":[94.901945,27.48446],"place_name":"Dibrugarh, Assam, India","iata":"DIB"},{"coordinates":[49.291339,-12.277913],"place_name":"Antsiranana I, Diana, Madagascar","iata":"DIE"},{"coordinates":[5.04147,47.321581],"place_name":"Dijon, Côte-d’Or, France","iata":"DIJ"},{"coordinates":[25.653277,41.111569],"place_name":"Dilina, East Macedonia and Thrace, Greece","iata":"DIL"},{"coordinates":[-4.7040556,6.6494255],"place_name":"Dimbokro, Lacs, Côte d'Ivoire","iata":"DIM"},{"coordinates":[103.0185,21.387489],"place_name":"Điện Biên Phủ, Điện Biên, Vietnam","iata":"DIN"},{"coordinates":[44.280551,24.805637],"place_name":"Adduwadimi, Riyadh, Saudi Arabia","iata":"DIR"},{"coordinates":[116.10685,-8.583773],"place_name":"Mataram, West Nusa Tenggara, Indonesia","iata":"AMI"},{"coordinates":[-104.654742,24.022008],"place_name":"Durango, Durango, Mexico","iata":"AMK"},{"coordinates":[35.923962,31.951569],"place_name":"عمّان, Amman, Jordan","iata":"AMM"},{"coordinates":[76.9457275,43.2363924],"place_name":"Almaty, Kazakhstan","iata":"AMN"},{"coordinates":[128.178785,-3.695943],"place_name":"Ambon, Maluku, Indonesia","iata":"AMQ"},{"coordinates":[4.9,52.378],"place_name":"Amsterdam, North Holland, Netherlands","iata":"AMS"},{"coordinates":[-85.831633,33.659442],"place_name":"Anniston, Alabama, United States","iata":"ANB"},{"coordinates":[-149.894852,61.216313],"place_name":"Anchorage, Alaska, United States","iata":"ANC"},{"coordinates":[-82.650626,34.50686],"place_name":"Anderson, South Carolina, United States","iata":"AND"},{"coordinates":[-0.5542172,47.4701762],"place_name":"Angers, Maine-et-Loire, France","iata":"ANE"},{"coordinates":[-70.398003,-23.646374],"place_name":"Antofagasta, Antofagasta, Chile","iata":"ANF"},{"coordinates":[0.1560939,45.6486302],"place_name":"Angoulême, Charente, France","iata":"ANG"},{"coordinates":[32.854048,39.920789],"place_name":"Ankara, Ankara, Türkiye","iata":"ANK"},{"coordinates":[-76.492786,38.97864],"place_name":"Annapolis, Maryland, United States","iata":"ANP"},{"coordinates":[17.912292115939,-12.0993951347033],"place_name":"Angola","iata":"ANQ"},{"coordinates":[4.399708,51.22111],"place_name":"Antwerpen, Antwerp, Belgium","iata":"ANR"},{"coordinates":[-73.389946,-13.656406],"place_name":"Andahuaylas, Apurímac, Peru","iata":"ANS"},{"coordinates":[1.304238,38.979573],"place_name":"Sant Antoni de Portmany, Balearic Islands, Spain","iata":"ANT"},{"coordinates":[-61.84387674,17.11793422],"place_name":"Antigua and Barbuda","iata":"ANU"},{"coordinates":[16.111911,69.315568],"place_name":"Andenes, Nordland, Norway","iata":"ANX"},{"coordinates":[7.617643,49.417196],"place_name":"Kindsbach, Kreis Kaiserslautern, Rhineland-Palatinate, Germany","iata":"AOC"},{"coordinates":[-58.4370894,-34.6075682],"place_name":"Buenos Aires, Argentina","iata":"AEP"},{"coordinates":[39.723109,43.585482],"place_name":"Сочи, Krasnodar Krai, Russia","iata":"AER"},{"coordinates":[6.155178,62.47114],"place_name":"Ålesund, Møre og Romsdal, Norway","iata":"AES"},{"coordinates":[-77.047023,38.80511],"place_name":"Alexandria, Virginia, United States","iata":"AEX"},{"coordinates":[-18.091299,65.682636],"place_name":"Akureyri, Northeastern Region, Iceland","iata":"AEY"},{"coordinates":[-104.825349,38.833958],"place_name":"Colorado Springs, Colorado, United States","iata":"AFF"},{"coordinates":[-72.023136,42.813973],"place_name":"Jaffrey, New Hampshire, United States","iata":"AFN"},{"coordinates":[-94.962867,36.693908],"place_name":"Afton, Oklahoma, United States","iata":"AFO"},{"coordinates":[-97.332746,32.753177],"place_name":"Fort Worth, Texas, United States","iata":"AFW"},{"coordinates":[30.538694,38.756851],"place_name":"Afyonkarahisar, Afyonkarahisar, Türkiye","iata":"AFY"},{"coordinates":[-9.583063,30.421114],"place_name":"Agadir, Souss-Massa, Morocco","iata":"AGA"},{"coordinates":[10.898697,48.366804],"place_name":"Augsburg, Bavaria, Germany","iata":"AGB"},{"coordinates":[-79.990086,40.441694],"place_name":"Pittsburgh, Pennsylvania, United States","iata":"AGC"},{"coordinates":[7.900038,53.78795],"place_name":"Wangerooge, Kreis Friesland, Lower Saxony, Germany","iata":"AGE"},{"coordinates":[0.617611,44.201583],"place_name":"Agen, Lot-et-Garonne, France","iata":"AGF"},{"coordinates":[12.704068,56.044198],"place_name":"Helsingborg, Skåne, Sweden","iata":"AGH"},{"coordinates":[-93.239334,33.267073],"place_name":"Magnolia, Arkansas, United States","iata":"AGO"},{"coordinates":[-4.412525,36.720476],"place_name":"Málaga, Málaga, Spain","iata":"AGP"},{"coordinates":[78.009816,27.175255],"place_name":"Agra, Uttar Pradesh, India","iata":"AGR"},{"coordinates":[-81.974843,33.470971],"place_name":"Augusta, Georgia, United States","iata":"AGS"},{"coordinates":[-54.616865,-25.516901],"place_name":"Ciudad del Este, Alto Paraná, Paraguay","iata":"AGT"},{"coordinates":[127.80566,26.334374],"place_name":"Japan, Okinawa沖縄市","iata":"AHA"},{"coordinates":[42.50436,18.216428],"place_name":"Abha, 'Asir, Saudi Arabia","iata":"AHB"},{"coordinates":[-120.134652,40.143514],"place_name":"Herlong, California, United States","iata":"AHC"},{"coordinates":[-97.143625,34.174261],"place_name":"Ardmore, Oklahoma, United States","iata":"AHD"},{"coordinates":[-90.9561,36.068024],"place_name":"Walnut Ridge, Arkansas, United States","iata":"ARG"},{"coordinates":[40.537121,64.543022],"place_name":"Архангельск, Arkhangelsk, Russia","iata":"ARH"},{"coordinates":[-70.321139,-18.478529],"place_name":"Arica, Arica y Parinacota, Chile","iata":"ARI"},{"coordinates":[18.071093,59.325117],"place_name":"Stockholm, Stockholm, Sweden","iata":"ARN"},{"coordinates":[-75.910757,43.974784],"place_name":"Watertown, New York, United States","iata":"ART"},{"coordinates":[-89.710981,45.871342],"place_name":"Minocqua, Wisconsin, United States","iata":"ARV"},{"coordinates":[50.640197,26.252286],"place_name":"Arad, Muharraq Governorate, Bahrain","iata":"ARW"},{"coordinates":[58.3823487,37.9404648],"place_name":"Ashgabat, Turkmenistan","iata":"ASB"},{"coordinates":[-107.996909,31.090981],"place_name":"Ascensión, Chihuahua, Mexico","iata":"ASC"},{"coordinates":[-106.823561,39.191113],"place_name":"Aspen, Colorado, United States","iata":"ASE"},{"coordinates":[48.03262,46.349831],"place_name":"Астрахань, Astrakhan, Russia","iata":"ASF"},{"coordinates":[-71.467703,42.765625],"place_name":"Nashua, New Hampshire, United States","iata":"ASH"},{"coordinates":[-97.677231,30.632694],"place_name":"Georgetown, Texas, United States","iata":"ASI"},{"coordinates":[-94.3661,32.544776],"place_name":"Marshall, Texas, United States","iata":"ASL"},{"coordinates":[38.914589,15.32235],"place_name":"Asmara, Maekel, Eritrea","iata":"ASM"},{"coordinates":[133.881288,-23.698388],"place_name":"Alice Springs, Northern Territory, Australia","iata":"ASP"},{"coordinates":[35.487452,38.722527],"place_name":"Kayseri, Kayseri, Türkiye","iata":"ASR"},{"coordinates":[-57.6343814,-25.2800459],"place_name":"Asunción, Paraguay","iata":"ASU"},{"coordinates":[32.897306,24.091071],"place_name":"Aswan, Aswan, Egypt","iata":"ASW"},{"coordinates":[30.695485,36.900964],"place_name":"Antalya, Antalya, Türkiye","iata":"ATA"},{"coordinates":[30.525595,39.766681],"place_name":"Eskisehir, Eskişehir, Türkiye","iata":"AOE"},{"coordinates":[-77.036526,-12.062106],"place_name":"Lima, Lima Province, Peru","iata":"AOH"},{"coordinates":[13.517098,43.617014],"place_name":"Ancona, Ancona, Italy","iata":"AOI"},{"coordinates":[27.21207,35.506765],"place_name":"Karpathos, South Aegean, Greece","iata":"AOK"},{"coordinates":[-77.96396,39.456253],"place_name":"Martinsburg, West Virginia, United States","iata":"AOO"},{"coordinates":[100.368396,6.123191],"place_name":"Alor Setar, Kedah, Malaysia","iata":"AOR"},{"coordinates":[7.3206117,45.7373682],"place_name":"Aosta, Aosta Valley, Italy","iata":"AOT"},{"coordinates":[-104.984862,39.739236],"place_name":"Denver, Colorado, United States","iata":"APA"},{"coordinates":[-81.794294,26.142198],"place_name":"Naples, Florida, United States","iata":"APF"},{"coordinates":[-2.09281,57.148243],"place_name":"Aberdeen, Aberdeen City, Scotland, United Kingdom","iata":"APG"},{"coordinates":[-86.443602,36.99032],"place_name":"Bowling Green, Kentucky, United States","iata":"APH"},{"coordinates":[-83.432753,45.061679],"place_name":"Alpena, Michigan, United States","iata":"APN"},{"coordinates":[-87.277505,33.831219],"place_name":"Jasper, Alabama, United States","iata":"APT"},{"coordinates":[-171.802879,-13.836945],"place_name":"Apia, Tuamasaga, Samoa","iata":"APW"},{"coordinates":[35.007822,29.526702],"place_name":"ال اقابا, Aqaba, Jordan","iata":"AQJ"},{"coordinates":[-71.536961,-16.398867],"place_name":"Arequipa, Arequipa, Peru","iata":"AQP"},{"coordinates":[-91.818729,30.003537],"place_name":"New Iberia, Louisiana, United States","iata":"ARA"},{"coordinates":[-83.731229,42.268157],"place_name":"Ann Arbor, Michigan, United States","iata":"ARB"},{"coordinates":[47.186654,24.136946],"place_name":"Alkharj, Riyadh, Saudi Arabia","iata":"AKH"},{"coordinates":[-154.172402,56.945181],"place_name":"Akhiok, Alaska, United States","iata":"AKK"},{"coordinates":[174.76318,-36.852095],"place_name":"Auckland, Auckland, New Zealand","iata":"AKL"},{"coordinates":[-81.518485,41.083064],"place_name":"Akron, Ohio, United States","iata":"AKO"},{"coordinates":[160.6992655,-8.7706073],"place_name":"Auki, Malaita, Solomon Islands","iata":"AKS"},{"coordinates":[32.983354,34.583114],"place_name":"Sovereign Base Areas of Akrotiri and Dhekelia","iata":"AKT"},{"coordinates":[52.806782,54.811889],"place_name":"Актюбинский, Азнакаевский район, Tatarstan, Russia","iata":"AKX"},{"coordinates":[76.9457275,43.2363924],"place_name":"Almaty, Kazakhstan","iata":"ALA"},{"coordinates":[-73.754968,42.651167],"place_name":"Albany, New York, United States","iata":"ALB"},{"coordinates":[-0.488171,38.343637],"place_name":"Alicante, Alicante, Spain","iata":"ALC"},{"coordinates":[-81.38859,28.661915],"place_name":"Altamonte Springs, Florida, United States","iata":"ALF"},{"coordinates":[3.0601882,36.7753606],"place_name":"Algiers, Algeria","iata":"ALG"},{"coordinates":[-98.069725,27.752249],"place_name":"Alice, Texas, United States","iata":"ALI"},{"coordinates":[16.482647,-28.5947869],"place_name":"Alexander Bay, Northern Cape, South Africa","iata":"ALJ"},{"coordinates":[8.213124,44.04925],"place_name":"Albenga, Savona, Italy","iata":"ALL"},{"coordinates":[-105.941835,32.904647],"place_name":"Alamogordo, New Mexico, United States","iata":"ALM"},{"coordinates":[-90.184309,38.890858],"place_name":"Alton, Illinois, United States","iata":"ALN"},{"coordinates":[-92.332964,42.497969],"place_name":"Waterloo, Iowa, United States","iata":"ALO"},{"coordinates":[37.1637253,36.19924],"place_name":"Aleppo, Syria","iata":"ALP"},{"coordinates":[-55.794862,-29.790166],"place_name":"Alegrete, Rio Grande do Sul, Brazil","iata":"ALQ"},{"coordinates":[-105.8696,37.469877],"place_name":"Alamosa, Colorado, United States","iata":"ALS"},{"coordinates":[-9.007606,39.056633],"place_name":"Alenquer, Lisbon, Portugal","iata":"ALT"},{"coordinates":[-100.026583,20.499453],"place_name":"La Valla, Querétaro, Mexico","iata":"ALV"},{"coordinates":[-118.339346,46.066728],"place_name":"Walla Walla, Washington, United States","iata":"ALW"},{"coordinates":[-85.953853,32.944012],"place_name":"Alexander City, Alabama, United States","iata":"ALX"},{"coordinates":[-77.047023,38.80511],"place_name":"Alexandria, Virginia, United States","iata":"ALY"},{"coordinates":[80.481946,29.113253],"place_name":"Alital, Sudurpashchim, Nepal","iata":"ALZ"},{"coordinates":[-101.833825,35.207219],"place_name":"Amarillo, Texas, United States","iata":"AMA"},{"coordinates":[72.579707,23.021624],"place_name":"Ahmedabad, Gujarat, India","iata":"AMD"},{"coordinates":[-83.376398,33.959768],"place_name":"Athens, Georgia, United States","iata":"ATH"},{"coordinates":[-56.4638078,-30.3984136],"place_name":"Artigas, Uruguay","iata":"ATI"},{"coordinates":[-84.390264,33.748992],"place_name":"Atlanta, Georgia, United States","iata":"ATL"},{"coordinates":[-83.376398,33.959768],"place_name":"Athens, Georgia, United States","iata":"ATO"},{"coordinates":[142.3594389,-3.1510221],"place_name":"Aitape, Sandaun, Papua New Guinea","iata":"ATP"},{"coordinates":[74.873679,31.634308],"place_name":"Amritsar, Punjab, India","iata":"ATQ"},{"coordinates":[-3.686566,37.222696],"place_name":"Atarfe, Granada, Spain","iata":"ATR"},{"coordinates":[-73.169002,40.804265],"place_name":"Islandia, New York, United States","iata":"ATU"},{"coordinates":[-88.406974,44.261397],"place_name":"Appleton, Wisconsin, United States","iata":"ATW"},{"coordinates":[-75.910757,43.974784],"place_name":"Watertown, New York, United States","iata":"ATY"},{"coordinates":[-69.9756409523066,12.5156286858793],"place_name":"Aruba","iata":"AUA"},{"coordinates":[-49.405121,-25.586111],"place_name":"Araucária, Paraná, Brazil","iata":"AUC"},{"coordinates":[3.570579,47.796129],"place_name":"Auxerre, Yonne, France","iata":"AUF"},{"coordinates":[-81.974843,33.470971],"place_name":"Augusta, Georgia, United States","iata":"AUG"},{"coordinates":[54.377401,24.453835],"place_name":"Abu Dhabi, Abu Dhabi, United Arab Emirates","iata":"AUH"},{"coordinates":[-85.480783,32.609857],"place_name":"Auburn, Alabama, United States","iata":"AUO"},{"coordinates":[2.44331,44.928544],"place_name":"Aurillac, Cantal, France","iata":"AUR"},{"coordinates":[-97.7437,30.271129],"place_name":"Austin, Texas, United States","iata":"AUS"},{"coordinates":[-89.629824,44.959602],"place_name":"Wausau, Wisconsin, United States","iata":"AUW"},{"coordinates":[3.570579,47.796129],"place_name":"Auxerre, Yonne, France","iata":"AUX"},{"coordinates":[-104.830995,39.740511],"place_name":"Aurora, Colorado, United States","iata":"AUZ"},{"coordinates":[12.589114,46.068544],"place_name":"Aviano, Pordenone, Italy","iata":"AVB"},{"coordinates":[-78.760105,21.841976],"place_name":"Ciego de Ávila, Ciego de Ávila, Cuba","iata":"AVI"},{"coordinates":[-73.754968,42.651167],"place_name":"Albany, New York, United States","iata":"ABY"},{"coordinates":[-2.09281,57.148243],"place_name":"Aberdeen, Aberdeen City, Scotland, United Kingdom","iata":"ABZ"},{"coordinates":[-99.894018,16.86805],"place_name":"Acapulco, Guerrero, Mexico","iata":"ACA"},{"coordinates":[-95.45883,29.705786],"place_name":"Bellaire, Texas, United States","iata":"ACB"},{"coordinates":[-0.202815,5.661083],"place_name":"Accra, Greater Accra, Ghana","iata":"ACC"},{"coordinates":[9.554054,47.490384],"place_name":"Altenrhein, St. Gallen, Switzerland","iata":"ACH"},{"coordinates":[-2.237578,53.305836],"place_name":"Alderley Edge, Cheshire East, England, United Kingdom","iata":"ACI"},{"coordinates":[-70.098422,41.285157],"place_name":"Nantucket, Massachusetts, United States","iata":"ACK"},{"coordinates":[-100.94784,29.319604],"place_name":"Ciudad Acuña, Coahuila, Mexico","iata":"ACN"},{"coordinates":[8.770786,46.155422],"place_name":"Ascona, Ticino, Switzerland","iata":"ACO"},{"coordinates":[-97.14667,31.549333],"place_name":"Waco, Texas, United States","iata":"ACT"},{"coordinates":[-124.08284,40.866517],"place_name":"Arcata, California, United States","iata":"ACV"},{"coordinates":[-74.443245,39.359153],"place_name":"Atlantic City, New Jersey, United States","iata":"ACY"},{"coordinates":[35.325286,36.98636],"place_name":"Adana, Adana, Türkiye","iata":"ADA"},{"coordinates":[27.143412,38.414733],"place_name":"Izmir, İzmir, Türkiye","iata":"ADB"},{"coordinates":[38.7612525,9.0107934],"place_name":"Addis Ababa, Ethiopia","iata":"ADD"},{"coordinates":[45.007226,12.790961],"place_name":"Aden, 'Adan, Yemen","iata":"ADE"},{"coordinates":[38.27729,37.763678],"place_name":"Adiyaman, Adıyaman, Türkiye","iata":"ADF"},{"coordinates":[-84.037305,41.897515],"place_name":"Adrian, Michigan, United States","iata":"ADG"},{"coordinates":[35.923962,31.951569],"place_name":"عمّان, Amman, Jordan","iata":"ADJ"},{"coordinates":[-73.169002,40.804265],"place_name":"Islandia, New York, United States","iata":"ADK"},{"coordinates":[138.599931,-34.92818],"place_name":"Adelaide, South Australia, Australia","iata":"ADL"},{"coordinates":[-97.143625,34.174261],"place_name":"Ardmore, Oklahoma, United States","iata":"ADM"},{"coordinates":[-79.560897,33.451278],"place_name":"Andrews, South Carolina, United States","iata":"ADR"},{"coordinates":[-96.796856,32.776272],"place_name":"Dallas, Texas, United States","iata":"ADS"},{"coordinates":[28.4717,-26.2584],"place_name":"Springs, Gauteng, South Africa","iata":"ADW"},{"coordinates":[-98.297615,19.051939],"place_name":"San Andrés Cholula, Puebla, Mexico","iata":"ADZ"},{"coordinates":[20.8283652,13.8280296],"place_name":"Abéché أبشي, Ouaddaï, Chad","iata":"AEH"},{"coordinates":[-76.825554,35.026154],"place_name":"Arapahoe, North Carolina, United States","iata":"AHF"},{"coordinates":[-92.362137,45.306906],"place_name":"Amery, Wisconsin, United States","iata":"AHH"},{"coordinates":[-83.376398,33.959768],"place_name":"Athens, Georgia, United States","iata":"AHN"},{"coordinates":[8.315147,40.560021],"place_name":"Alghero, Sassari, Italy","iata":"AHO"},{"coordinates":[2.742492,48.712359],"place_name":"Presles-en-Brie, Seine-et-Marne, France","iata":"AHU"},{"coordinates":[-82.650626,34.50686],"place_name":"Anderson, South Carolina, United States","iata":"AID"},{"coordinates":[-81.721952,33.559859],"place_name":"Aiken, South Carolina, United States","iata":"AIK"},{"coordinates":[-110.861206,52.837428],"place_name":"Wainwright, Alberta, Canada","iata":"AIN"},{"coordinates":[-74.443245,39.359153],"place_name":"Atlantic City, New Jersey, United States","iata":"AIO"},{"coordinates":[-88.151417,33.129568],"place_name":"Aliceville, Alabama, United States","iata":"AIV"},{"coordinates":[-74.443245,39.359153],"place_name":"Atlantic City, New Jersey, United States","iata":"AIY"},{"coordinates":[-92.622645,38.17988],"place_name":"Lake Ozark, Missouri, United States","iata":"AIZ"},{"coordinates":[8.737603,41.926399],"place_name":"Ajaccio, Corse-du-Sud, France","iata":"AJA"},{"coordinates":[-3.152315,5.309949],"place_name":"Adjouan, Comoé, Côte d'Ivoire","iata":"AJN"},{"coordinates":[19.169502,65.594767],"place_name":"Arvidsjaur, Norrbotten, Sweden","iata":"AJR"},{"coordinates":[-37.077466,-10.916206],"place_name":"Aracaju, Sergipe, Brazil","iata":"AJU"},{"coordinates":[-4.269038,40.914854],"place_name":"Abades, Segovia, Spain","iata":"AJY"},{"coordinates":[-174.200205,52.198947],"place_name":"Atka, Alaska, United States","iata":"AKB"},{"coordinates":[-81.518485,41.083064],"place_name":"Akron, Ohio, United States","iata":"AKC"},{"coordinates":[24.497094,13.2825751],"place_name":"Kurrah, Central Darfur, Sudan","iata":"AKF"}],"timestamp":1699450329016}